{"type": "FeatureCollection", "features": [{"type": "Feature", "geometry": {"type": "LineString", "coordinates": [[126.97800068981007, 37.566466268947686], [126.9778241, 37.566464], [126.9778258, 37.5664198], [126.9776458, 37.5664159], [126.9776381, 37.5666033], [126.9773923, 37.566606], [126.9773765, 37.5662432], [126.9775185, 37.566009], [126.9774965, 37.5659006], [126.9774817, 37.565655], [126.9775112, 37.5655051], [126.9774348, 37.5654488], [126.9773835, 37.5653758], [126.9774214, 37.5652043], [126.9775905, 37.5649968], [126.9775533, 37.5649246], [126.977084, 37.5649238], [126.9770563, 37.5646419], [126.9769846, 37.5644551], [126.9767325, 37.5642669], [126.9766467, 37.5641712], [126.9764831, 37.5640689], [126.976007, 37.5638064], [126.9748345, 37.5633221], [126.9741385, 37.5630679], [126.9732578, 37.5628155], [126.9731104, 37.5627896], [126.9724068, 37.5626179], [126.9701407, 37.5622245], [126.9687207, 37.5618927], [126.9685283, 37.5619674], [126.9674778, 37.5623115], [126.9670851, 37.5624218], [126.966394, 37.5625152], [126.966024, 37.5625346], [126.9655524, 37.5625378], [126.9650333, 37.5625817], [126.9648999, 37.5626103], [126.9645418, 37.5627451], [126.9641641, 37.5621631], [126.9641034, 37.5620474], [126.9638998, 37.5621191], [126.96332064029978, 37.56116756186674], [126.9638998, 37.5621191], [126.9641649, 37.5625316], [126.9646625, 37.5632645], [126.9652318, 37.5640557], [126.9656624, 37.5646916], [126.966295, 37.5655361], [126.9663063, 37.565717], [126.9662608, 37.5660327], [126.9662118, 37.5661783], [126.966104, 37.5662772], [126.9661758, 37.5663387], [126.9662629, 37.5663795], [126.9654664, 37.5671838], [126.9655345, 37.5672764], [126.9658727, 37.5674159], [126.9662947, 37.5679066], [126.9665014, 37.5681192], [126.9662555, 37.568287], [126.9663046, 37.5683333], [126.9658249, 37.5687213], [126.965534, 37.5685739], [126.96551888932633, 37.56859340922618], [126.965534, 37.5685739], [126.9658249, 37.5687213], [126.9663046, 37.5683333], [126.9662555, 37.568287], [126.9665014, 37.5681192], [126.9662947, 37.5679066], [126.9658727, 37.5674159], [126.9655345, 37.5672764], [126.9654664, 37.5671838], [126.9665958, 37.5660389], [126.9668396, 37.565861], [126.9673307, 37.5653932], [126.9678438, 37.5647349], [126.9687527, 37.5634872], [126.9694378, 37.5624869], [126.9697216, 37.5621293], [126.9699502, 37.5618144], [126.9704839, 37.5611448], [126.9713549, 37.5599258], [126.9715167, 37.5596095], [126.9719063, 37.5596221], [126.9738055, 37.5597866], [126.9740985, 37.5596513], [126.9742131, 37.5594903], [126.9742358, 37.5595016], [126.9742626, 37.5594355], [126.974277, 37.5593439], [126.9742729, 37.5593055], [126.9742469, 37.5592424], [126.9741965, 37.5591634], [126.974326, 37.5591009], [126.9744055, 37.5590852], [126.97430346524878, 37.558953171711764], [126.9744781, 37.5591676], [126.9746556, 37.5596248], [126.9748418, 37.5600374], [126.9749786, 37.5601702], [126.975144, 37.560303], [126.9754943, 37.5605134], [126.9756327, 37.560605], [126.9757272, 37.5607057], [126.9758241, 37.5608986], [126.9759624, 37.5612188], [126.9763671, 37.5622515], [126.976415, 37.5623932], [126.9765293, 37.5623689], [126.9769496, 37.5634794], [126.9770796, 37.5637987], [126.9771404, 37.5639218], [126.9773682, 37.5645647], [126.9775905, 37.5649968], [126.9774214, 37.5652043], [126.9773835, 37.5653758], [126.9774348, 37.5654488], [126.9775112, 37.5655051], [126.9774817, 37.565655], [126.9774965, 37.5659006], [126.9775185, 37.566009], [126.9773765, 37.5662432], [126.9773923, 37.566606], [126.9776381, 37.5666033], [126.9776458, 37.5664159], [126.9778258, 37.5664198], [126.9778241, 37.566464], [126.97800068981007, 37.566466268947686]]}, "properties": {"type": "route"}}, {"type": "Feature", "geometry": {"type": "Point", "coordinates": [126.97800068981007, 37.566466268947686]}, "properties": {"type": "start/end"}}, {"type": "Feature", "geometry": {"type": "Point", "coordinates": [126.9778241, 37.566464]}, "properties": {"type": "start/end"}}, {"type": "Feature", "geometry": {"type": "Point", "coordinates": [126.9778258, 37.5664198]}, "properties": {"type": "start/end"}}, {"type": "Feature", "geometry": {"type": "Point", "coordinates": [126.9776458, 37.5664159]}, "properties": {"type": "start/end"}}, {"type": "Feature", "geometry": {"type": "Point", "coordinates": [126.9776381, 37.5666033]}, "properties": {"type": "start/end"}}, {"type": "Feature", "geometry": {"type": "Point", "coordinates": [126.9773923, 37.566606]}, "properties": {"type": "start/end"}}, {"type": "Feature", "geometry": {"type": "Point", "coordinates": [126.9773765, 37.5662432]}, "properties": {"type": "start/end"}}, {"type": "Feature", "geometry": {"type": "Point", "coordinates": [126.9775185, 37.566009]}, "properties": {"type": "start/end"}}, {"type": "Feature", "geometry": {"type": "Point", "coordinates": [126.9774965, 37.5659006]}, "properties": {"type": "start/end"}}, {"type": "Feature", "geometry": {"type": "Point", "coordinates": [126.9774817, 37.565655]}, "properties": {"type": "start/end"}}, {"type": "Feature", "geometry": {"type": "Point", "coordinates": [126.9775112, 37.5655051]}, "properties": {"type": "start/end"}}, {"type": "Feature", "geometry": {"type": "Point", "coordinates": [126.9774348, 37.5654488]}, "properties": {"type": "start/end"}}, {"type": "Feature", "geometry": {"type": "Point", "coordinates": [126.9773835, 37.5653758]}, "properties": {"type": "start/end"}}, {"type": "Feature", "geometry": {"type": "Point", "coordinates": [126.9774214, 37.5652043]}, "properties": {"type": "start/end"}}, {"type": "Feature", "geometry": {"type": "Point", "coordinates": [126.9775905, 37.5649968]}, "properties": {"type": "start/end"}}, {"type": "Feature", "geometry": {"type": "Point", "coordinates": [126.9775533, 37.5649246]}, "properties": {"type": "start/end"}}, {"type": "Feature", "geometry": {"type": "Point", "coordinates": [126.977084, 37.5649238]}, "properties": {"type": "start/end"}}, {"type": "Feature", "geometry": {"type": "Point", "coordinates": [126.9770563, 37.5646419]}, "properties": {"type": "start/end"}}, {"type": "Feature", "geometry": {"type": "Point", "coordinates": [126.9769846, 37.5644551]}, "properties": {"type": "start/end"}}, {"type": "Feature", "geometry": {"type": "Point", "coordinates": [126.9767325, 37.5642669]}, "properties": {"type": "start/end"}}, {"type": "Feature", "geometry": {"type": "Point", "coordinates": [126.9766467, 37.5641712]}, "properties": {"type": "start/end"}}, {"type": "Feature", "geometry": {"type": "Point", "coordinates": [126.9764831, 37.5640689]}, "properties": {"type": "start/end"}}, {"type": "Feature", "geometry": {"type": "Point", "coordinates": [126.976007, 37.5638064]}, "properties": {"type": "start/end"}}, {"type": "Feature", "geometry": {"type": "Point", "coordinates": [126.9748345, 37.5633221]}, "properties": {"type": "start/end"}}, {"type": "Feature", "geometry": {"type": "Point", "coordinates": [126.9741385, 37.5630679]}, "properties": {"type": "start/end"}}, {"type": "Feature", "geometry": {"type": "Point", "coordinates": [126.9732578, 37.5628155]}, "properties": {"type": "start/end"}}, {"type": "Feature", "geometry": {"type": "Point", "coordinates": [126.9731104, 37.5627896]}, "properties": {"type": "start/end"}}, {"type": "Feature", "geometry": {"type": "Point", "coordinates": [126.9724068, 37.5626179]}, "properties": {"type": "start/end"}}, {"type": "Feature", "geometry": {"type": "Point", "coordinates": [126.9701407, 37.5622245]}, "properties": {"type": "start/end"}}, {"type": "Feature", "geometry": {"type": "Point", "coordinates": [126.9687207, 37.5618927]}, "properties": {"type": "start/end"}}, {"type": "Feature", "geometry": {"type": "Point", "coordinates": [126.9685283, 37.5619674]}, "properties": {"type": "start/end"}}, {"type": "Feature", "geometry": {"type": "Point", "coordinates": [126.9674778, 37.5623115]}, "properties": {"type": "start/end"}}, {"type": "Feature", "geometry": {"type": "Point", "coordinates": [126.9670851, 37.5624218]}, "properties": {"type": "start/end"}}, {"type": "Feature", "geometry": {"type": "Point", "coordinates": [126.966394, 37.5625152]}, "properties": {"type": "start/end"}}, {"type": "Feature", "geometry": {"type": "Point", "coordinates": [126.966024, 37.5625346]}, "properties": {"type": "start/end"}}, {"type": "Feature", "geometry": {"type": "Point", "coordinates": [126.9655524, 37.5625378]}, "properties": {"type": "start/end"}}, {"type": "Feature", "geometry": {"type": "Point", "coordinates": [126.9650333, 37.5625817]}, "properties": {"type": "start/end"}}, {"type": "Feature", "geometry": {"type": "Point", "coordinates": [126.9648999, 37.5626103]}, "properties": {"type": "start/end"}}, {"type": "Feature", "geometry": {"type": "Point", "coordinates": [126.9645418, 37.5627451]}, "properties": {"type": "start/end"}}, {"type": "Feature", "geometry": {"type": "Point", "coordinates": [126.9641641, 37.5621631]}, "properties": {"type": "start/end"}}, {"type": "Feature", "geometry": {"type": "Point", "coordinates": [126.9641034, 37.5620474]}, "properties": {"type": "start/end"}}, {"type": "Feature", "geometry": {"type": "Point", "coordinates": [126.9638998, 37.5621191]}, "properties": {"type": "start/end"}}, {"type": "Feature", "geometry": {"type": "Point", "coordinates": [126.96332064029978, 37.56116756186674]}, "properties": {"type": "start/end"}}, {"type": "Feature", "geometry": {"type": "Point", "coordinates": [126.9638998, 37.5621191]}, "properties": {"type": "start/end"}}, {"type": "Feature", "geometry": {"type": "Point", "coordinates": [126.9641649, 37.5625316]}, "properties": {"type": "start/end"}}, {"type": "Feature", "geometry": {"type": "Point", "coordinates": [126.9646625, 37.5632645]}, "properties": {"type": "start/end"}}, {"type": "Feature", "geometry": {"type": "Point", "coordinates": [126.9652318, 37.5640557]}, "properties": {"type": "start/end"}}, {"type": "Feature", "geometry": {"type": "Point", "coordinates": [126.9656624, 37.5646916]}, "properties": {"type": "start/end"}}, {"type": "Feature", "geometry": {"type": "Point", "coordinates": [126.966295, 37.5655361]}, "properties": {"type": "start/end"}}, {"type": "Feature", "geometry": {"type": "Point", "coordinates": [126.9663063, 37.565717]}, "properties": {"type": "start/end"}}, {"type": "Feature", "geometry": {"type": "Point", "coordinates": [126.9662608, 37.5660327]}, "properties": {"type": "start/end"}}, {"type": "Feature", "geometry": {"type": "Point", "coordinates": [126.9662118, 37.5661783]}, "properties": {"type": "start/end"}}, {"type": "Feature", "geometry": {"type": "Point", "coordinates": [126.966104, 37.5662772]}, "properties": {"type": "start/end"}}, {"type": "Feature", "geometry": {"type": "Point", "coordinates": [126.9661758, 37.5663387]}, "properties": {"type": "start/end"}}, {"type": "Feature", "geometry": {"type": "Point", "coordinates": [126.9662629, 37.5663795]}, "properties": {"type": "start/end"}}, {"type": "Feature", "geometry": {"type": "Point", "coordinates": [126.9654664, 37.5671838]}, "properties": {"type": "start/end"}}, {"type": "Feature", "geometry": {"type": "Point", "coordinates": [126.9655345, 37.5672764]}, "properties": {"type": "start/end"}}, {"type": "Feature", "geometry": {"type": "Point", "coordinates": [126.9658727, 37.5674159]}, "properties": {"type": "start/end"}}, {"type": "Feature", "geometry": {"type": "Point", "coordinates": [126.9662947, 37.5679066]}, "properties": {"type": "start/end"}}, {"type": "Feature", "geometry": {"type": "Point", "coordinates": [126.9665014, 37.5681192]}, "properties": {"type": "start/end"}}, {"type": "Feature", "geometry": {"type": "Point", "coordinates": [126.9662555, 37.568287]}, "properties": {"type": "start/end"}}, {"type": "Feature", "geometry": {"type": "Point", "coordinates": [126.9663046, 37.5683333]}, "properties": {"type": "start/end"}}, {"type": "Feature", "geometry": {"type": "Point", "coordinates": [126.9658249, 37.5687213]}, "properties": {"type": "start/end"}}, {"type": "Feature", "geometry": {"type": "Point", "coordinates": [126.965534, 37.5685739]}, "properties": {"type": "start/end"}}, {"type": "Feature", "geometry": {"type": "Point", "coordinates": [126.96551888932633, 37.56859340922618]}, "properties": {"type": "start/end"}}, {"type": "Feature", "geometry": {"type": "Point", "coordinates": [126.965534, 37.5685739]}, "properties": {"type": "start/end"}}, {"type": "Feature", "geometry": {"type": "Point", "coordinates": [126.9658249, 37.5687213]}, "properties": {"type": "start/end"}}, {"type": "Feature", "geometry": {"type": "Point", "coordinates": [126.9663046, 37.5683333]}, "properties": {"type": "start/end"}}, {"type": "Feature", "geometry": {"type": "Point", "coordinates": [126.9662555, 37.568287]}, "properties": {"type": "start/end"}}, {"type": "Feature", "geometry": {"type": "Point", "coordinates": [126.9665014, 37.5681192]}, "properties": {"type": "start/end"}}, {"type": "Feature", "geometry": {"type": "Point", "coordinates": [126.9662947, 37.5679066]}, "properties": {"type": "start/end"}}, {"type": "Feature", "geometry": {"type": "Point", "coordinates": [126.9658727, 37.5674159]}, "properties": {"type": "start/end"}}, {"type": "Feature", "geometry": {"type": "Point", "coordinates": [126.9655345, 37.5672764]}, "properties": {"type": "start/end"}}, {"type": "Feature", "geometry": {"type": "Point", "coordinates": [126.9654664, 37.5671838]}, "properties": {"type": "start/end"}}, {"type": "Feature", "geometry": {"type": "Point", "coordinates": [126.9665958, 37.5660389]}, "properties": {"type": "start/end"}}, {"type": "Feature", "geometry": {"type": "Point", "coordinates": [126.9668396, 37.565861]}, "properties": {"type": "start/end"}}, {"type": "Feature", "geometry": {"type": "Point", "coordinates": [126.9673307, 37.5653932]}, "properties": {"type": "start/end"}}, {"type": "Feature", "geometry": {"type": "Point", "coordinates": [126.9678438, 37.5647349]}, "properties": {"type": "start/end"}}, {"type": "Feature", "geometry": {"type": "Point", "coordinates": [126.9687527, 37.5634872]}, "properties": {"type": "start/end"}}, {"type": "Feature", "geometry": {"type": "Point", "coordinates": [126.9694378, 37.5624869]}, "properties": {"type": "start/end"}}, {"type": "Feature", "geometry": {"type": "Point", "coordinates": [126.9697216, 37.5621293]}, "properties": {"type": "start/end"}}, {"type": "Feature", "geometry": {"type": "Point", "coordinates": [126.9699502, 37.5618144]}, "properties": {"type": "start/end"}}, {"type": "Feature", "geometry": {"type": "Point", "coordinates": [126.9704839, 37.5611448]}, "properties": {"type": "start/end"}}, {"type": "Feature", "geometry": {"type": "Point", "coordinates": [126.9713549, 37.5599258]}, "properties": {"type": "start/end"}}, {"type": "Feature", "geometry": {"type": "Point", "coordinates": [126.9715167, 37.5596095]}, "properties": {"type": "start/end"}}, {"type": "Feature", "geometry": {"type": "Point", "coordinates": [126.9719063, 37.5596221]}, "properties": {"type": "start/end"}}, {"type": "Feature", "geometry": {"type": "Point", "coordinates": [126.9738055, 37.5597866]}, "properties": {"type": "start/end"}}, {"type": "Feature", "geometry": {"type": "Point", "coordinates": [126.9740985, 37.5596513]}, "properties": {"type": "start/end"}}, {"type": "Feature", "geometry": {"type": "Point", "coordinates": [126.9742131, 37.5594903]}, "properties": {"type": "start/end"}}, {"type": "Feature", "geometry": {"type": "Point", "coordinates": [126.9742358, 37.5595016]}, "properties": {"type": "start/end"}}, {"type": "Feature", "geometry": {"type": "Point", "coordinates": [126.9742626, 37.5594355]}, "properties": {"type": "start/end"}}, {"type": "Feature", "geometry": {"type": "Point", "coordinates": [126.974277, 37.5593439]}, "properties": {"type": "start/end"}}, {"type": "Feature", "geometry": {"type": "Point", "coordinates": [126.9742729, 37.5593055]}, "properties": {"type": "start/end"}}, {"type": "Feature", "geometry": {"type": "Point", "coordinates": [126.9742469, 37.5592424]}, "properties": {"type": "start/end"}}, {"type": "Feature", "geometry": {"type": "Point", "coordinates": [126.9741965, 37.5591634]}, "properties": {"type": "start/end"}}, {"type": "Feature", "geometry": {"type": "Point", "coordinates": [126.974326, 37.5591009]}, "properties": {"type": "start/end"}}, {"type": "Feature", "geometry": {"type": "Point", "coordinates": [126.9744055, 37.5590852]}, "properties": {"type": "start/end"}}, {"type": "Feature", "geometry": {"type": "Point", "coordinates": [126.97430346524878, 37.558953171711764]}, "properties": {"type": "start/end"}}, {"type": "Feature", "geometry": {"type": "Point", "coordinates": [126.9744781, 37.5591676]}, "properties": {"type": "start/end"}}, {"type": "Feature", "geometry": {"type": "Point", "coordinates": [126.9746556, 37.5596248]}, "properties": {"type": "start/end"}}, {"type": "Feature", "geometry": {"type": "Point", "coordinates": [126.9748418, 37.5600374]}, "properties": {"type": "start/end"}}, {"type": "Feature", "geometry": {"type": "Point", "coordinates": [126.9749786, 37.5601702]}, "properties": {"type": "start/end"}}, {"type": "Feature", "geometry": {"type": "Point", "coordinates": [126.975144, 37.560303]}, "properties": {"type": "start/end"}}, {"type": "Feature", "geometry": {"type": "Point", "coordinates": [126.9754943, 37.5605134]}, "properties": {"type": "start/end"}}, {"type": "Feature", "geometry": {"type": "Point", "coordinates": [126.9756327, 37.560605]}, "properties": {"type": "start/end"}}, {"type": "Feature", "geometry": {"type": "Point", "coordinates": [126.9757272, 37.5607057]}, "properties": {"type": "start/end"}}, {"type": "Feature", "geometry": {"type": "Point", "coordinates": [126.9758241, 37.5608986]}, "properties": {"type": "start/end"}}, {"type": "Feature", "geometry": {"type": "Point", "coordinates": [126.9759624, 37.5612188]}, "properties": {"type": "start/end"}}, {"type": "Feature", "geometry": {"type": "Point", "coordinates": [126.9763671, 37.5622515]}, "properties": {"type": "start/end"}}, {"type": "Feature", "geometry": {"type": "Point", "coordinates": [126.976415, 37.5623932]}, "properties": {"type": "start/end"}}, {"type": "Feature", "geometry": {"type": "Point", "coordinates": [126.9765293, 37.5623689]}, "properties": {"type": "start/end"}}, {"type": "Feature", "geometry": {"type": "Point", "coordinates": [126.9769496, 37.5634794]}, "properties": {"type": "start/end"}}, {"type": "Feature", "geometry": {"type": "Point", "coordinates": [126.9770796, 37.5637987]}, "properties": {"type": "start/end"}}, {"type": "Feature", "geometry": {"type": "Point", "coordinates": [126.9771404, 37.5639218]}, "properties": {"type": "start/end"}}, {"type": "Feature", "geometry": {"type": "Point", "coordinates": [126.9773682, 37.5645647]}, "properties": {"type": "start/end"}}, {"type": "Feature", "geometry": {"type": "Point", "coordinates": [126.9775905, 37.5649968]}, "properties": {"type": "start/end"}}, {"type": "Feature", "geometry": {"type": "Point", "coordinates": [126.9774214, 37.5652043]}, "properties": {"type": "start/end"}}, {"type": "Feature", "geometry": {"type": "Point", "coordinates": [126.9773835, 37.5653758]}, "properties": {"type": "start/end"}}, {"type": "Feature", "geometry": {"type": "Point", "coordinates": [126.9774348, 37.5654488]}, "properties": {"type": "start/end"}}, {"type": "Feature", "geometry": {"type": "Point", "coordinates": [126.9775112, 37.5655051]}, "properties": {"type": "start/end"}}, {"type": "Feature", "geometry": {"type": "Point", "coordinates": [126.9774817, 37.565655]}, "properties": {"type": "start/end"}}, {"type": "Feature", "geometry": {"type": "Point", "coordinates": [126.9774965, 37.5659006]}, "properties": {"type": "start/end"}}, {"type": "Feature", "geometry": {"type": "Point", "coordinates": [126.9775185, 37.566009]}, "properties": {"type": "start/end"}}, {"type": "Feature", "geometry": {"type": "Point", "coordinates": [126.9773765, 37.5662432]}, "properties": {"type": "start/end"}}, {"type": "Feature", "geometry": {"type": "Point", "coordinates": [126.9773923, 37.566606]}, "properties": {"type": "start/end"}}, {"type": "Feature", "geometry": {"type": "Point", "coordinates": [126.9776381, 37.5666033]}, "properties": {"type": "start/end"}}, {"type": "Feature", "geometry": {"type": "Point", "coordinates": [126.9776458, 37.5664159]}, "properties": {"type": "start/end"}}, {"type": "Feature", "geometry": {"type": "Point", "coordinates": [126.9778258, 37.5664198]}, "properties": {"type": "start/end"}}, {"type": "Feature", "geometry": {"type": "Point", "coordinates": [126.9778241, 37.566464]}, "properties": {"type": "start/end"}}, {"type": "Feature", "geometry": {"type": "Point", "coordinates": [126.97800068981007, 37.566466268947686]}, "properties": {"type": "start/end"}}]}