{"type": "FeatureCollection", "features": [{"type": "Feature", "geometry": {"type": "LineString", "coordinates": [[126.9779704135259, 37.566465879937105], [126.9778241, 37.566464], [126.9778258, 37.5664198], [126.9776458, 37.5664159], [126.9776381, 37.5666033], [126.9773923, 37.566606], [126.9773765, 37.5662432], [126.9775185, 37.566009], [126.9774965, 37.5659006], [126.9774817, 37.565655], [126.9775112, 37.5655051], [126.9774348, 37.5654488], [126.9773835, 37.5653758], [126.9774214, 37.5652043], [126.9775905, 37.5649968], [126.9773682, 37.5645647], [126.9771404, 37.5639218], [126.9770796, 37.5637987], [126.9769496, 37.5634794], [126.9765293, 37.5623689], [126.976415, 37.5623932], [126.9763671, 37.5622515], [126.9759624, 37.5612188], [126.9758241, 37.5608986], [126.9757625, 37.5607849], [126.9755924, 37.5608092], [126.9753679, 37.5606036], [126.9752387, 37.5605622], [126.975017, 37.5604446], [126.9747896, 37.5602821], [126.9746754, 37.560148], [126.9745844, 37.56002], [126.9741838, 37.5598591], [126.9740682, 37.5598236], [126.9738591, 37.5597906], [126.97287, 37.55971], [126.9719063, 37.5596221], [126.9715167, 37.5596095], [126.9693058, 37.5594405], [126.9692911, 37.5593209], [126.9692863, 37.5591795], [126.9693049, 37.5587348], [126.9693267, 37.5586301], [126.9693041, 37.5581805], [126.969366, 37.5580484], [126.9691961, 37.5573023], [126.9691621, 37.5568587], [126.9691597, 37.5565007], [126.9691356, 37.5562029], [126.9690912, 37.554583], [126.9690874, 37.5534252], [126.9690977, 37.5532408], [126.9693713, 37.5532434], [126.9694906, 37.5532368], [126.9695527, 37.5532082], [126.9695707, 37.5530223], [126.9696186, 37.5527791], [126.96967975284866, 37.55255460281995], [126.9696186, 37.5527791], [126.9695707, 37.5530223], [126.9695527, 37.5532082], [126.9694906, 37.5532368], [126.9693713, 37.5532434], [126.9690977, 37.5532408], [126.969112, 37.5529862], [126.969461, 37.5516299], [126.9696355, 37.5509112], [126.9696677, 37.5507097], [126.9698157, 37.5499939], [126.9698915, 37.5496556], [126.9700106, 37.5491922], [126.9700223, 37.5491056], [126.9705118, 37.5490759], [126.9707189, 37.5486295], [126.9714051, 37.549148], [126.971645, 37.5493492], [126.9716628, 37.5495019], [126.9719049, 37.5494661], [126.9719851, 37.5498537], [126.9727557, 37.5498496], [126.9731833, 37.5503383], [126.9736779, 37.5503292], [126.9740072, 37.5503332], [126.9740873, 37.5503551], [126.974525, 37.5504299], [126.9748118, 37.5503897], [126.9750337, 37.5503363], [126.9753878, 37.550272], [126.97569, 37.5502085], [126.9760976, 37.550079], [126.9772009, 37.550214], [126.9773058, 37.5501964], [126.9774892, 37.5501292], [126.9778671, 37.5499744], [126.9780463, 37.5499144], [126.9784575, 37.5500262], [126.9786162, 37.5500834], [126.9786818, 37.5501295], [126.9787157, 37.5502773], [126.9787601, 37.5503394], [126.9791363, 37.5505842], [126.9793568, 37.5506558], [126.9795909, 37.5507762], [126.9797629, 37.5509077], [126.9802112, 37.5511643], [126.9803135, 37.5512451], [126.9806813, 37.5513745], [126.9807261, 37.5517253], [126.9812005, 37.5516706], [126.9812404, 37.5521079], [126.9812822, 37.5522246], [126.981418, 37.5522422], [126.9817627, 37.5522609], [126.9818833, 37.5522464], [126.9819957, 37.5522103], [126.9821289, 37.5522744], [126.9822453, 37.5524502], [126.9824362, 37.5524704], [126.9829534, 37.5532307], [126.9831974, 37.5532166], [126.9833932, 37.5531514], [126.9836183, 37.5532274], [126.9837971, 37.5532092], [126.9840441, 37.5531964], [126.9842214, 37.5532054], [126.984415, 37.5532054], [126.9845206, 37.5532473], [126.9847112, 37.5534009], [126.9847307, 37.5534455], [126.9846033, 37.5535859], [126.984561, 37.5536736], [126.984565, 37.5537379], [126.984622, 37.5537964], [126.9846629, 37.5538224], [126.9847421, 37.5538395], [126.984809, 37.5539054], [126.9848181, 37.5540132], [126.9848339, 37.5540702], [126.9849351, 37.5540938], [126.9850335, 37.5541275], [126.9850812, 37.5540278], [126.9851346, 37.5540342], [126.985275, 37.5541591], [126.985331, 37.5541845], [126.9853772, 37.554111], [126.9854227, 37.55389], [126.9855035, 37.5537921], [126.9855808, 37.5537279], [126.9858102, 37.5536615], [126.9859544, 37.553604], [126.9860975, 37.5535234], [126.9862213, 37.5534148], [126.9863413, 37.5532878], [126.9866104, 37.5528188], [126.9867339, 37.5526727], [126.9868576, 37.5525552], [126.9870069, 37.5524487], [126.9870966, 37.5523989], [126.9871155, 37.5523659], [126.9871371, 37.5522495], [126.9871634, 37.5521891], [126.987301, 37.5520206], [126.9873707, 37.5519478], [126.9875413, 37.5518422], [126.987744, 37.5517631], [126.987894, 37.5517271], [126.98804910546131, 37.55122237714012]]}, "properties": {}}]}