{"type": "FeatureCollection", "features": [{"type": "Feature", "geometry": {"type": "LineString", "coordinates": [[126.9779704135259, 37.566465879937105], [126.9778241, 37.566464], [126.9778258, 37.5664198], [126.9776458, 37.5664159], [126.9776381, 37.5666033], [126.9776087, 37.5666036], [126.9776017, 37.566868], [126.9773952, 37.5668644], [126.9773957, 37.5669071], [126.9771133, 37.5669047], [126.9771089, 37.5671239], [126.9770423, 37.5684059], [126.9770279, 37.5696339], [126.9769471, 37.5698278], [126.9769037, 37.5698968], [126.9768234, 37.5699565], [126.9769005, 37.5700455], [126.9769011, 37.5702796], [126.9765627, 37.5702783], [126.9764814, 37.5703087], [126.9763864, 37.5704043], [126.9761275, 37.5706267], [126.975926, 37.5708175], [126.9758708, 37.5708924], [126.9755005, 37.5714101], [126.975375, 37.5716164], [126.9738052, 37.5716106], [126.9737618, 37.5720476], [126.9726083, 37.5720389], [126.9726153, 37.5721344], [126.97212979041596, 37.57214053792142], [126.9726153, 37.5721344], [126.9725489, 37.5701046], [126.9721635, 37.5700801], [126.9718616, 37.5700264], [126.9710299, 37.5695206], [126.9705891, 37.5692732], [126.970511, 37.5692121], [126.969625, 37.5686144], [126.9692254, 37.5683012], [126.968876, 37.5678941], [126.968499, 37.567575], [126.9672471, 37.5662905], [126.9672114, 37.5661708], [126.9671255, 37.5659625], [126.9671063, 37.5658755], [126.9671229, 37.5657116], [126.9672164, 37.5655014], [126.9673307, 37.5653932], [126.9678438, 37.5647349], [126.9684848, 37.5638496], [126.9683201, 37.5637674], [126.9686359, 37.5633044], [126.9684836, 37.5631275], [126.9683413, 37.5630083], [126.96826, 37.5629019], [126.9681706, 37.5627473], [126.968012, 37.5622735], [126.9680083, 37.5621396], [126.9685283, 37.5619674], [126.9687207, 37.5618927], [126.9685579, 37.5618602], [126.9678852, 37.5616957], [126.9674427, 37.561573], [126.9675374, 37.5614201], [126.96782946560691, 37.56072547974733], [126.9680146, 37.5602852], [126.9682389, 37.559856], [126.9683337, 37.5596451], [126.9684687, 37.5594625], [126.9685341, 37.5594109], [126.9690603, 37.5594597], [126.9693058, 37.5594405], [126.9715167, 37.5596095], [126.9719063, 37.5596221], [126.9738055, 37.5597866], [126.9740985, 37.5596513], [126.9742131, 37.5594903], [126.9742358, 37.5595016], [126.9742626, 37.5594355], [126.974277, 37.5593439], [126.9742729, 37.5593055], [126.9742469, 37.5592424], [126.9741965, 37.5591634], [126.974326, 37.5591009], [126.9744055, 37.5590852], [126.9744917, 37.5590529], [126.9745872, 37.5591383], [126.9746399, 37.5592613], [126.9752222, 37.5589827], [126.9755341, 37.5590261], [126.975549897419, 37.558945511323394], [126.9755019, 37.5592646], [126.9756818, 37.559873], [126.9757016, 37.5600465], [126.9756698, 37.5601905], [126.975927, 37.5601943], [126.9760179, 37.5603623], [126.9760061, 37.5606725], [126.9760119, 37.5607031], [126.9759632, 37.5607564], [126.9759915, 37.5609575], [126.9763612, 37.5618637], [126.9765293, 37.5623689], [126.9769496, 37.5634794], [126.9770796, 37.5637987], [126.9771404, 37.5639218], [126.9773682, 37.5645647], [126.9775905, 37.5649968], [126.9774214, 37.5652043], [126.9773835, 37.5653758], [126.9774348, 37.5654488], [126.9775112, 37.5655051], [126.9774817, 37.565655], [126.9774965, 37.5659006], [126.9775185, 37.566009], [126.9773765, 37.5662432], [126.9773923, 37.566606], [126.9776381, 37.5666033], [126.9776458, 37.5664159], [126.9778258, 37.5664198], [126.9778241, 37.566464], [126.9779704135259, 37.566465879937105]]}, "properties": {"type": "route"}}, {"type": "Feature", "geometry": {"type": "Point", "coordinates": [126.9779704135259, 37.566465879937105]}, "properties": {"type": "start/end"}}, {"type": "Feature", "geometry": {"type": "Point", "coordinates": [126.9778241, 37.566464]}, "properties": {"type": "start/end"}}, {"type": "Feature", "geometry": {"type": "Point", "coordinates": [126.9778258, 37.5664198]}, "properties": {"type": "start/end"}}, {"type": "Feature", "geometry": {"type": "Point", "coordinates": [126.9776458, 37.5664159]}, "properties": {"type": "start/end"}}, {"type": "Feature", "geometry": {"type": "Point", "coordinates": [126.9776381, 37.5666033]}, "properties": {"type": "start/end"}}, {"type": "Feature", "geometry": {"type": "Point", "coordinates": [126.9776087, 37.5666036]}, "properties": {"type": "start/end"}}, {"type": "Feature", "geometry": {"type": "Point", "coordinates": [126.9776017, 37.566868]}, "properties": {"type": "start/end"}}, {"type": "Feature", "geometry": {"type": "Point", "coordinates": [126.9773952, 37.5668644]}, "properties": {"type": "start/end"}}, {"type": "Feature", "geometry": {"type": "Point", "coordinates": [126.9773957, 37.5669071]}, "properties": {"type": "start/end"}}, {"type": "Feature", "geometry": {"type": "Point", "coordinates": [126.9771133, 37.5669047]}, "properties": {"type": "start/end"}}, {"type": "Feature", "geometry": {"type": "Point", "coordinates": [126.9771089, 37.5671239]}, "properties": {"type": "start/end"}}, {"type": "Feature", "geometry": {"type": "Point", "coordinates": [126.9770423, 37.5684059]}, "properties": {"type": "start/end"}}, {"type": "Feature", "geometry": {"type": "Point", "coordinates": [126.9770279, 37.5696339]}, "properties": {"type": "start/end"}}, {"type": "Feature", "geometry": {"type": "Point", "coordinates": [126.9769471, 37.5698278]}, "properties": {"type": "start/end"}}, {"type": "Feature", "geometry": {"type": "Point", "coordinates": [126.9769037, 37.5698968]}, "properties": {"type": "start/end"}}, {"type": "Feature", "geometry": {"type": "Point", "coordinates": [126.9768234, 37.5699565]}, "properties": {"type": "start/end"}}, {"type": "Feature", "geometry": {"type": "Point", "coordinates": [126.9769005, 37.5700455]}, "properties": {"type": "start/end"}}, {"type": "Feature", "geometry": {"type": "Point", "coordinates": [126.9769011, 37.5702796]}, "properties": {"type": "start/end"}}, {"type": "Feature", "geometry": {"type": "Point", "coordinates": [126.9765627, 37.5702783]}, "properties": {"type": "start/end"}}, {"type": "Feature", "geometry": {"type": "Point", "coordinates": [126.9764814, 37.5703087]}, "properties": {"type": "start/end"}}, {"type": "Feature", "geometry": {"type": "Point", "coordinates": [126.9763864, 37.5704043]}, "properties": {"type": "start/end"}}, {"type": "Feature", "geometry": {"type": "Point", "coordinates": [126.9761275, 37.5706267]}, "properties": {"type": "start/end"}}, {"type": "Feature", "geometry": {"type": "Point", "coordinates": [126.975926, 37.5708175]}, "properties": {"type": "start/end"}}, {"type": "Feature", "geometry": {"type": "Point", "coordinates": [126.9758708, 37.5708924]}, "properties": {"type": "start/end"}}, {"type": "Feature", "geometry": {"type": "Point", "coordinates": [126.9755005, 37.5714101]}, "properties": {"type": "start/end"}}, {"type": "Feature", "geometry": {"type": "Point", "coordinates": [126.975375, 37.5716164]}, "properties": {"type": "start/end"}}, {"type": "Feature", "geometry": {"type": "Point", "coordinates": [126.9738052, 37.5716106]}, "properties": {"type": "start/end"}}, {"type": "Feature", "geometry": {"type": "Point", "coordinates": [126.9737618, 37.5720476]}, "properties": {"type": "start/end"}}, {"type": "Feature", "geometry": {"type": "Point", "coordinates": [126.9726083, 37.5720389]}, "properties": {"type": "start/end"}}, {"type": "Feature", "geometry": {"type": "Point", "coordinates": [126.9726153, 37.5721344]}, "properties": {"type": "start/end"}}, {"type": "Feature", "geometry": {"type": "Point", "coordinates": [126.97212979041596, 37.57214053792142]}, "properties": {"type": "start/end"}}, {"type": "Feature", "geometry": {"type": "Point", "coordinates": [126.9726153, 37.5721344]}, "properties": {"type": "start/end"}}, {"type": "Feature", "geometry": {"type": "Point", "coordinates": [126.9725489, 37.5701046]}, "properties": {"type": "start/end"}}, {"type": "Feature", "geometry": {"type": "Point", "coordinates": [126.9721635, 37.5700801]}, "properties": {"type": "start/end"}}, {"type": "Feature", "geometry": {"type": "Point", "coordinates": [126.9718616, 37.5700264]}, "properties": {"type": "start/end"}}, {"type": "Feature", "geometry": {"type": "Point", "coordinates": [126.9710299, 37.5695206]}, "properties": {"type": "start/end"}}, {"type": "Feature", "geometry": {"type": "Point", "coordinates": [126.9705891, 37.5692732]}, "properties": {"type": "start/end"}}, {"type": "Feature", "geometry": {"type": "Point", "coordinates": [126.970511, 37.5692121]}, "properties": {"type": "start/end"}}, {"type": "Feature", "geometry": {"type": "Point", "coordinates": [126.969625, 37.5686144]}, "properties": {"type": "start/end"}}, {"type": "Feature", "geometry": {"type": "Point", "coordinates": [126.9692254, 37.5683012]}, "properties": {"type": "start/end"}}, {"type": "Feature", "geometry": {"type": "Point", "coordinates": [126.968876, 37.5678941]}, "properties": {"type": "start/end"}}, {"type": "Feature", "geometry": {"type": "Point", "coordinates": [126.968499, 37.567575]}, "properties": {"type": "start/end"}}, {"type": "Feature", "geometry": {"type": "Point", "coordinates": [126.9672471, 37.5662905]}, "properties": {"type": "start/end"}}, {"type": "Feature", "geometry": {"type": "Point", "coordinates": [126.9672114, 37.5661708]}, "properties": {"type": "start/end"}}, {"type": "Feature", "geometry": {"type": "Point", "coordinates": [126.9671255, 37.5659625]}, "properties": {"type": "start/end"}}, {"type": "Feature", "geometry": {"type": "Point", "coordinates": [126.9671063, 37.5658755]}, "properties": {"type": "start/end"}}, {"type": "Feature", "geometry": {"type": "Point", "coordinates": [126.9671229, 37.5657116]}, "properties": {"type": "start/end"}}, {"type": "Feature", "geometry": {"type": "Point", "coordinates": [126.9672164, 37.5655014]}, "properties": {"type": "start/end"}}, {"type": "Feature", "geometry": {"type": "Point", "coordinates": [126.9673307, 37.5653932]}, "properties": {"type": "start/end"}}, {"type": "Feature", "geometry": {"type": "Point", "coordinates": [126.9678438, 37.5647349]}, "properties": {"type": "start/end"}}, {"type": "Feature", "geometry": {"type": "Point", "coordinates": [126.9684848, 37.5638496]}, "properties": {"type": "start/end"}}, {"type": "Feature", "geometry": {"type": "Point", "coordinates": [126.9683201, 37.5637674]}, "properties": {"type": "start/end"}}, {"type": "Feature", "geometry": {"type": "Point", "coordinates": [126.9686359, 37.5633044]}, "properties": {"type": "start/end"}}, {"type": "Feature", "geometry": {"type": "Point", "coordinates": [126.9684836, 37.5631275]}, "properties": {"type": "start/end"}}, {"type": "Feature", "geometry": {"type": "Point", "coordinates": [126.9683413, 37.5630083]}, "properties": {"type": "start/end"}}, {"type": "Feature", "geometry": {"type": "Point", "coordinates": [126.96826, 37.5629019]}, "properties": {"type": "start/end"}}, {"type": "Feature", "geometry": {"type": "Point", "coordinates": [126.9681706, 37.5627473]}, "properties": {"type": "start/end"}}, {"type": "Feature", "geometry": {"type": "Point", "coordinates": [126.968012, 37.5622735]}, "properties": {"type": "start/end"}}, {"type": "Feature", "geometry": {"type": "Point", "coordinates": [126.9680083, 37.5621396]}, "properties": {"type": "start/end"}}, {"type": "Feature", "geometry": {"type": "Point", "coordinates": [126.9685283, 37.5619674]}, "properties": {"type": "start/end"}}, {"type": "Feature", "geometry": {"type": "Point", "coordinates": [126.9687207, 37.5618927]}, "properties": {"type": "start/end"}}, {"type": "Feature", "geometry": {"type": "Point", "coordinates": [126.9685579, 37.5618602]}, "properties": {"type": "start/end"}}, {"type": "Feature", "geometry": {"type": "Point", "coordinates": [126.9678852, 37.5616957]}, "properties": {"type": "start/end"}}, {"type": "Feature", "geometry": {"type": "Point", "coordinates": [126.9674427, 37.561573]}, "properties": {"type": "start/end"}}, {"type": "Feature", "geometry": {"type": "Point", "coordinates": [126.9675374, 37.5614201]}, "properties": {"type": "start/end"}}, {"type": "Feature", "geometry": {"type": "Point", "coordinates": [126.96782946560691, 37.56072547974733]}, "properties": {"type": "start/end"}}, {"type": "Feature", "geometry": {"type": "Point", "coordinates": [126.9680146, 37.5602852]}, "properties": {"type": "start/end"}}, {"type": "Feature", "geometry": {"type": "Point", "coordinates": [126.9682389, 37.559856]}, "properties": {"type": "start/end"}}, {"type": "Feature", "geometry": {"type": "Point", "coordinates": [126.9683337, 37.5596451]}, "properties": {"type": "start/end"}}, {"type": "Feature", "geometry": {"type": "Point", "coordinates": [126.9684687, 37.5594625]}, "properties": {"type": "start/end"}}, {"type": "Feature", "geometry": {"type": "Point", "coordinates": [126.9685341, 37.5594109]}, "properties": {"type": "start/end"}}, {"type": "Feature", "geometry": {"type": "Point", "coordinates": [126.9690603, 37.5594597]}, "properties": {"type": "start/end"}}, {"type": "Feature", "geometry": {"type": "Point", "coordinates": [126.9693058, 37.5594405]}, "properties": {"type": "start/end"}}, {"type": "Feature", "geometry": {"type": "Point", "coordinates": [126.9715167, 37.5596095]}, "properties": {"type": "start/end"}}, {"type": "Feature", "geometry": {"type": "Point", "coordinates": [126.9719063, 37.5596221]}, "properties": {"type": "start/end"}}, {"type": "Feature", "geometry": {"type": "Point", "coordinates": [126.9738055, 37.5597866]}, "properties": {"type": "start/end"}}, {"type": "Feature", "geometry": {"type": "Point", "coordinates": [126.9740985, 37.5596513]}, "properties": {"type": "start/end"}}, {"type": "Feature", "geometry": {"type": "Point", "coordinates": [126.9742131, 37.5594903]}, "properties": {"type": "start/end"}}, {"type": "Feature", "geometry": {"type": "Point", "coordinates": [126.9742358, 37.5595016]}, "properties": {"type": "start/end"}}, {"type": "Feature", "geometry": {"type": "Point", "coordinates": [126.9742626, 37.5594355]}, "properties": {"type": "start/end"}}, {"type": "Feature", "geometry": {"type": "Point", "coordinates": [126.974277, 37.5593439]}, "properties": {"type": "start/end"}}, {"type": "Feature", "geometry": {"type": "Point", "coordinates": [126.9742729, 37.5593055]}, "properties": {"type": "start/end"}}, {"type": "Feature", "geometry": {"type": "Point", "coordinates": [126.9742469, 37.5592424]}, "properties": {"type": "start/end"}}, {"type": "Feature", "geometry": {"type": "Point", "coordinates": [126.9741965, 37.5591634]}, "properties": {"type": "start/end"}}, {"type": "Feature", "geometry": {"type": "Point", "coordinates": [126.974326, 37.5591009]}, "properties": {"type": "start/end"}}, {"type": "Feature", "geometry": {"type": "Point", "coordinates": [126.9744055, 37.5590852]}, "properties": {"type": "start/end"}}, {"type": "Feature", "geometry": {"type": "Point", "coordinates": [126.9744917, 37.5590529]}, "properties": {"type": "start/end"}}, {"type": "Feature", "geometry": {"type": "Point", "coordinates": [126.9745872, 37.5591383]}, "properties": {"type": "start/end"}}, {"type": "Feature", "geometry": {"type": "Point", "coordinates": [126.9746399, 37.5592613]}, "properties": {"type": "start/end"}}, {"type": "Feature", "geometry": {"type": "Point", "coordinates": [126.9752222, 37.5589827]}, "properties": {"type": "start/end"}}, {"type": "Feature", "geometry": {"type": "Point", "coordinates": [126.9755341, 37.5590261]}, "properties": {"type": "start/end"}}, {"type": "Feature", "geometry": {"type": "Point", "coordinates": [126.975549897419, 37.558945511323394]}, "properties": {"type": "start/end"}}, {"type": "Feature", "geometry": {"type": "Point", "coordinates": [126.9755019, 37.5592646]}, "properties": {"type": "start/end"}}, {"type": "Feature", "geometry": {"type": "Point", "coordinates": [126.9756818, 37.559873]}, "properties": {"type": "start/end"}}, {"type": "Feature", "geometry": {"type": "Point", "coordinates": [126.9757016, 37.5600465]}, "properties": {"type": "start/end"}}, {"type": "Feature", "geometry": {"type": "Point", "coordinates": [126.9756698, 37.5601905]}, "properties": {"type": "start/end"}}, {"type": "Feature", "geometry": {"type": "Point", "coordinates": [126.975927, 37.5601943]}, "properties": {"type": "start/end"}}, {"type": "Feature", "geometry": {"type": "Point", "coordinates": [126.9760179, 37.5603623]}, "properties": {"type": "start/end"}}, {"type": "Feature", "geometry": {"type": "Point", "coordinates": [126.9760061, 37.5606725]}, "properties": {"type": "start/end"}}, {"type": "Feature", "geometry": {"type": "Point", "coordinates": [126.9760119, 37.5607031]}, "properties": {"type": "start/end"}}, {"type": "Feature", "geometry": {"type": "Point", "coordinates": [126.9759632, 37.5607564]}, "properties": {"type": "start/end"}}, {"type": "Feature", "geometry": {"type": "Point", "coordinates": [126.9759915, 37.5609575]}, "properties": {"type": "start/end"}}, {"type": "Feature", "geometry": {"type": "Point", "coordinates": [126.9763612, 37.5618637]}, "properties": {"type": "start/end"}}, {"type": "Feature", "geometry": {"type": "Point", "coordinates": [126.9765293, 37.5623689]}, "properties": {"type": "start/end"}}, {"type": "Feature", "geometry": {"type": "Point", "coordinates": [126.9769496, 37.5634794]}, "properties": {"type": "start/end"}}, {"type": "Feature", "geometry": {"type": "Point", "coordinates": [126.9770796, 37.5637987]}, "properties": {"type": "start/end"}}, {"type": "Feature", "geometry": {"type": "Point", "coordinates": [126.9771404, 37.5639218]}, "properties": {"type": "start/end"}}, {"type": "Feature", "geometry": {"type": "Point", "coordinates": [126.9773682, 37.5645647]}, "properties": {"type": "start/end"}}, {"type": "Feature", "geometry": {"type": "Point", "coordinates": [126.9775905, 37.5649968]}, "properties": {"type": "start/end"}}, {"type": "Feature", "geometry": {"type": "Point", "coordinates": [126.9774214, 37.5652043]}, "properties": {"type": "start/end"}}, {"type": "Feature", "geometry": {"type": "Point", "coordinates": [126.9773835, 37.5653758]}, "properties": {"type": "start/end"}}, {"type": "Feature", "geometry": {"type": "Point", "coordinates": [126.9774348, 37.5654488]}, "properties": {"type": "start/end"}}, {"type": "Feature", "geometry": {"type": "Point", "coordinates": [126.9775112, 37.5655051]}, "properties": {"type": "start/end"}}, {"type": "Feature", "geometry": {"type": "Point", "coordinates": [126.9774817, 37.565655]}, "properties": {"type": "start/end"}}, {"type": "Feature", "geometry": {"type": "Point", "coordinates": [126.9774965, 37.5659006]}, "properties": {"type": "start/end"}}, {"type": "Feature", "geometry": {"type": "Point", "coordinates": [126.9775185, 37.566009]}, "properties": {"type": "start/end"}}, {"type": "Feature", "geometry": {"type": "Point", "coordinates": [126.9773765, 37.5662432]}, "properties": {"type": "start/end"}}, {"type": "Feature", "geometry": {"type": "Point", "coordinates": [126.9773923, 37.566606]}, "properties": {"type": "start/end"}}, {"type": "Feature", "geometry": {"type": "Point", "coordinates": [126.9776381, 37.5666033]}, "properties": {"type": "start/end"}}, {"type": "Feature", "geometry": {"type": "Point", "coordinates": [126.9776458, 37.5664159]}, "properties": {"type": "start/end"}}, {"type": "Feature", "geometry": {"type": "Point", "coordinates": [126.9778258, 37.5664198]}, "properties": {"type": "start/end"}}, {"type": "Feature", "geometry": {"type": "Point", "coordinates": [126.9778241, 37.566464]}, "properties": {"type": "start/end"}}, {"type": "Feature", "geometry": {"type": "Point", "coordinates": [126.9779704135259, 37.566465879937105]}, "properties": {"type": "start/end"}}]}