{"type": "FeatureCollection", "features": [{"type": "Feature", "geometry": {"type": "LineString", "coordinates": [[126.9779704135259, 37.566465879937105], [126.9778241, 37.566464], [126.9778258, 37.5664198], [126.9776458, 37.5664159], [126.9776381, 37.5666033], [126.9773087, 37.5666069], [126.9772883, 37.5668606], [126.97727, 37.5668598], [126.9772684, 37.5672448], [126.9772379, 37.5672486], [126.9772097, 37.5698179], [126.9773198, 37.5715987], [126.9772179, 37.5741212], [126.9772331, 37.5742319], [126.9773095, 37.5742563], [126.9775295, 37.5742723], [126.9779546, 37.5742797], [126.9781771, 37.5743421], [126.9783765, 37.5743468], [126.9783971, 37.5743907], [126.978446, 37.5744171], [126.9784757, 37.5744202], [126.9784809, 37.57446], [126.97868, 37.57483], [126.9788483, 37.5750358], [126.979225, 37.5754276], [126.9793889, 37.5755553], [126.9796554, 37.575663], [126.9796568, 37.5756996], [126.979705, 37.5757933], [126.9797127, 37.5759278], [126.9799611, 37.5759563], [126.9798646, 37.5760461], [126.9800893, 37.5764533], [126.9804652, 37.5769808], [126.9806685, 37.5776425], [126.9806577, 37.5776777], [126.9807178, 37.5777206], [126.9808811, 37.5781553], [126.9809555, 37.57841], [126.9809893, 37.5784031], [126.9810703, 37.5786775], [126.981199, 37.5787447], [126.981227, 37.5787846], [126.981227, 37.5788236], [126.9811808, 37.5789494], [126.9811439, 37.579019], [126.9811632, 37.5791937], [126.9813048, 37.5791945], [126.9815285, 37.5791689], [126.9815939, 37.5791722], [126.98166909295605, 37.579604263462066], [126.9815939, 37.5791722], [126.9815285, 37.5791689], [126.9813048, 37.5791945], [126.9811632, 37.5791937], [126.9811439, 37.579019], [126.9811808, 37.5789494], [126.981227, 37.5788236], [126.981227, 37.5787846], [126.981199, 37.5787447], [126.9810703, 37.5786775], [126.9809893, 37.5784031], [126.9809555, 37.57841], [126.9808811, 37.5781553], [126.9807178, 37.5777206], [126.9806577, 37.5776777], [126.9806685, 37.5776425], [126.9804652, 37.5769808], [126.9800893, 37.5764533], [126.9798646, 37.5760461], [126.9799611, 37.5759563], [126.9797127, 37.5759278], [126.979705, 37.5757933], [126.9796568, 37.5756996], [126.9796554, 37.575663], [126.9793889, 37.5755553], [126.979225, 37.5754276], [126.9788483, 37.5750358], [126.97868, 37.57483], [126.9784809, 37.57446], [126.9784757, 37.5744202], [126.978446, 37.5744171], [126.9783971, 37.5743907], [126.9783765, 37.5743468], [126.9773862, 37.5743236], [126.9744778, 37.5740805], [126.9734373, 37.57407], [126.9726915, 37.5740414], [126.9726083, 37.5720389], [126.9725486, 37.5701892], [126.9719561, 37.5701855], [126.9716455, 37.5700634], [126.9701049, 37.5689867], [126.9700451, 37.5689542], [126.9694906, 37.5686522], [126.9691067, 37.5683684], [126.9687704, 37.5680549], [126.9682763, 37.5676193], [126.96754, 37.5668212], [126.9670182, 37.5663216], [126.9665825, 37.5658697], [126.966295, 37.5655361], [126.9656624, 37.5646916], [126.9654909, 37.5644384], [126.9654093, 37.5644067], [126.9651921, 37.5643517], [126.964777, 37.5643927], [126.9640041, 37.5644242], [126.9637969, 37.5644757], [126.9632644, 37.5646687], [126.9631854, 37.5646907], [126.9630232, 37.5647145], [126.9628303, 37.5647014], [126.9627148, 37.5646681], [126.9626573, 37.5646341], [126.9620427, 37.5641182], [126.9619829, 37.5640785], [126.961897, 37.5640383], [126.9617829, 37.5640052], [126.9616571, 37.5639906], [126.9614801, 37.5640021], [126.9614011, 37.5640206], [126.9600448, 37.5644522], [126.9596719, 37.5645476], [126.9590945, 37.5644081], [126.9589735, 37.5643348], [126.9583718, 37.56415], [126.9580995, 37.5640127], [126.9579411, 37.5638165], [126.9576887, 37.5632594], [126.9573055, 37.5631359], [126.9574413, 37.5628466], [126.9556482, 37.5622556], [126.9556762, 37.5621874], [126.9540853, 37.5617777], [126.9528475, 37.5615676], [126.9527597, 37.5615445], [126.9522146, 37.5612706], [126.9519634, 37.5611092], [126.9505593, 37.5601597], [126.9498684, 37.5597757], [126.9494253, 37.5595273], [126.9491463, 37.5589386], [126.9487672, 37.5588609], [126.9479493, 37.5587995], [126.9465552, 37.5588014], [126.9457452, 37.5587741], [126.94580928498856, 37.55810055448099]]}, "properties": {}}]}