{"type": "FeatureCollection", "features": [{"type": "Feature", "geometry": {"type": "LineString", "coordinates": [[126.97800061959825, 37.5664660224127], [126.9784438, 37.5664711], [126.9784458, 37.5663705], [126.9785213, 37.5663475], [126.9790108, 37.5662531], [126.9791423, 37.5662463], [126.9791959, 37.5668992], [126.9797857, 37.5668776], [126.9797921, 37.5673446], [126.9804788, 37.5673231], [126.9805828, 37.5673118], [126.9806489, 37.5676971], [126.9813331, 37.5678901], [126.9812141, 37.5682893], [126.9808939, 37.5682915], [126.9805966051589, 37.5683125863839], [126.9808939, 37.5682915], [126.9812141, 37.5682893], [126.9811017, 37.5688031], [126.9825226, 37.5687196], [126.9825267, 37.5687553], [126.9827446, 37.5687378], [126.9827849, 37.5690741], [126.9828538, 37.5695301], [126.9829601, 37.5701576], [126.9829761, 37.5704046], [126.9830552, 37.5710945], [126.98404412325281, 37.57110870204951], [126.9830552, 37.5710945], [126.9829761, 37.5704046], [126.9828747, 37.5704062], [126.982813, 37.5703915], [126.9827964, 37.5702033], [126.9809071, 37.5701957], [126.9797933, 37.5701995], [126.979338, 37.5701409], [126.9793025, 37.569295], [126.9791699, 37.5692947], [126.9791688, 37.5692561], [126.9784086, 37.5693048], [126.9776066, 37.569343], [126.9775686, 37.5690663], [126.9773441, 37.5687781], [126.9773768, 37.5680233], [126.9773441, 37.56794], [126.9773957, 37.5669071], [126.9769492, 37.5669034], [126.9769532, 37.5668302], [126.9769204, 37.5667253], [126.9769184, 37.5665208], [126.9769169, 37.5662205], [126.976944, 37.5655619], [126.9768892, 37.5652948], [126.9769348, 37.5651709], [126.9769168, 37.564958], [126.9764901, 37.565015], [126.9760729, 37.5650617], [126.9760924, 37.5652783], [126.9757113, 37.5653945], [126.9757635, 37.5655493], [126.9750407, 37.5656926], [126.975102, 37.5658895], [126.9744924, 37.5660598], [126.97408974717308, 37.56606784686664], [126.9744924, 37.5660598], [126.975102, 37.5658895], [126.9750407, 37.5656926], [126.9757635, 37.5655493], [126.9757113, 37.5653945], [126.9760924, 37.5652783], [126.9760729, 37.5650617], [126.9764901, 37.565015], [126.9769168, 37.564958], [126.9768705, 37.5648222], [126.9766489, 37.5648204], [126.9761116, 37.5648891], [126.9759418, 37.5648948], [126.9740713, 37.5647443], [126.973986, 37.5647502], [126.9739311, 37.5647752], [126.9738894, 37.5648102], [126.97383, 37.5649], [126.9736445, 37.5651281], [126.9734681, 37.5651886], [126.973464, 37.5651592], [126.973446, 37.5651333], [126.9735184, 37.5650436], [126.9735778, 37.5649321], [126.9736114, 37.5648857], [126.9737381, 37.5647818], [126.9737687, 37.564741], [126.9737926, 37.5646799], [126.973795, 37.5646186], [126.9737657, 37.5643453], [126.9738924, 37.5643484], [126.973895, 37.5642918], [126.974274, 37.564308], [126.9742914, 37.5641091], [126.9742624, 37.5640916], [126.9742375, 37.5640562], [126.97416973259323, 37.564051822260545], [126.9742375, 37.5640562], [126.9742624, 37.5640916], [126.9742914, 37.5641091], [126.974274, 37.564308], [126.973895, 37.5642918], [126.9738924, 37.5643484], [126.9737657, 37.5643453], [126.973795, 37.5646186], [126.9737926, 37.5646799], [126.9737687, 37.564741], [126.9737381, 37.5647818], [126.9736114, 37.5648857], [126.9735778, 37.5649321], [126.9735184, 37.5650436], [126.973446, 37.5651333], [126.973464, 37.5651592], [126.9734681, 37.5651886], [126.9736445, 37.5651281], [126.97383, 37.5649], [126.9738894, 37.5648102], [126.9739311, 37.5647752], [126.973986, 37.5647502], [126.9740713, 37.5647443], [126.9751098, 37.5648294], [126.9759418, 37.5648948], [126.9761116, 37.5648891], [126.9766489, 37.5648204], [126.9770737, 37.5648238], [126.977084, 37.5649238], [126.9772128, 37.564928], [126.9782113, 37.5649179], [126.9783214, 37.5649478], [126.9784092, 37.5649883], [126.9784768, 37.5650437], [126.9785327, 37.5651195], [126.9789049, 37.5658899], [126.9789782, 37.5660099], [126.980623, 37.5660131], [126.9820871, 37.5660402], [126.982681, 37.5664871], [126.9826936, 37.5667932], [126.98399683456309, 37.56680165357095]]}, "properties": {"type": "route"}}, {"type": "Feature", "geometry": {"type": "Point", "coordinates": [126.97800061959825, 37.5664660224127]}, "properties": {"type": "start/end"}}, {"type": "Feature", "geometry": {"type": "Point", "coordinates": [126.9784438, 37.5664711]}, "properties": {"type": "start/end"}}, {"type": "Feature", "geometry": {"type": "Point", "coordinates": [126.9784458, 37.5663705]}, "properties": {"type": "start/end"}}, {"type": "Feature", "geometry": {"type": "Point", "coordinates": [126.9785213, 37.5663475]}, "properties": {"type": "start/end"}}, {"type": "Feature", "geometry": {"type": "Point", "coordinates": [126.9790108, 37.5662531]}, "properties": {"type": "start/end"}}, {"type": "Feature", "geometry": {"type": "Point", "coordinates": [126.9791423, 37.5662463]}, "properties": {"type": "start/end"}}, {"type": "Feature", "geometry": {"type": "Point", "coordinates": [126.9791959, 37.5668992]}, "properties": {"type": "start/end"}}, {"type": "Feature", "geometry": {"type": "Point", "coordinates": [126.9797857, 37.5668776]}, "properties": {"type": "start/end"}}, {"type": "Feature", "geometry": {"type": "Point", "coordinates": [126.9797921, 37.5673446]}, "properties": {"type": "start/end"}}, {"type": "Feature", "geometry": {"type": "Point", "coordinates": [126.9804788, 37.5673231]}, "properties": {"type": "start/end"}}, {"type": "Feature", "geometry": {"type": "Point", "coordinates": [126.9805828, 37.5673118]}, "properties": {"type": "start/end"}}, {"type": "Feature", "geometry": {"type": "Point", "coordinates": [126.9806489, 37.5676971]}, "properties": {"type": "start/end"}}, {"type": "Feature", "geometry": {"type": "Point", "coordinates": [126.9813331, 37.5678901]}, "properties": {"type": "start/end"}}, {"type": "Feature", "geometry": {"type": "Point", "coordinates": [126.9812141, 37.5682893]}, "properties": {"type": "start/end"}}, {"type": "Feature", "geometry": {"type": "Point", "coordinates": [126.9808939, 37.5682915]}, "properties": {"type": "start/end"}}, {"type": "Feature", "geometry": {"type": "Point", "coordinates": [126.9805966051589, 37.5683125863839]}, "properties": {"type": "start/end"}}, {"type": "Feature", "geometry": {"type": "Point", "coordinates": [126.9808939, 37.5682915]}, "properties": {"type": "start/end"}}, {"type": "Feature", "geometry": {"type": "Point", "coordinates": [126.9812141, 37.5682893]}, "properties": {"type": "start/end"}}, {"type": "Feature", "geometry": {"type": "Point", "coordinates": [126.9811017, 37.5688031]}, "properties": {"type": "start/end"}}, {"type": "Feature", "geometry": {"type": "Point", "coordinates": [126.9825226, 37.5687196]}, "properties": {"type": "start/end"}}, {"type": "Feature", "geometry": {"type": "Point", "coordinates": [126.9825267, 37.5687553]}, "properties": {"type": "start/end"}}, {"type": "Feature", "geometry": {"type": "Point", "coordinates": [126.9827446, 37.5687378]}, "properties": {"type": "start/end"}}, {"type": "Feature", "geometry": {"type": "Point", "coordinates": [126.9827849, 37.5690741]}, "properties": {"type": "start/end"}}, {"type": "Feature", "geometry": {"type": "Point", "coordinates": [126.9828538, 37.5695301]}, "properties": {"type": "start/end"}}, {"type": "Feature", "geometry": {"type": "Point", "coordinates": [126.9829601, 37.5701576]}, "properties": {"type": "start/end"}}, {"type": "Feature", "geometry": {"type": "Point", "coordinates": [126.9829761, 37.5704046]}, "properties": {"type": "start/end"}}, {"type": "Feature", "geometry": {"type": "Point", "coordinates": [126.9830552, 37.5710945]}, "properties": {"type": "start/end"}}, {"type": "Feature", "geometry": {"type": "Point", "coordinates": [126.98404412325281, 37.57110870204951]}, "properties": {"type": "start/end"}}, {"type": "Feature", "geometry": {"type": "Point", "coordinates": [126.9830552, 37.5710945]}, "properties": {"type": "start/end"}}, {"type": "Feature", "geometry": {"type": "Point", "coordinates": [126.9829761, 37.5704046]}, "properties": {"type": "start/end"}}, {"type": "Feature", "geometry": {"type": "Point", "coordinates": [126.9828747, 37.5704062]}, "properties": {"type": "start/end"}}, {"type": "Feature", "geometry": {"type": "Point", "coordinates": [126.982813, 37.5703915]}, "properties": {"type": "start/end"}}, {"type": "Feature", "geometry": {"type": "Point", "coordinates": [126.9827964, 37.5702033]}, "properties": {"type": "start/end"}}, {"type": "Feature", "geometry": {"type": "Point", "coordinates": [126.9809071, 37.5701957]}, "properties": {"type": "start/end"}}, {"type": "Feature", "geometry": {"type": "Point", "coordinates": [126.9797933, 37.5701995]}, "properties": {"type": "start/end"}}, {"type": "Feature", "geometry": {"type": "Point", "coordinates": [126.979338, 37.5701409]}, "properties": {"type": "start/end"}}, {"type": "Feature", "geometry": {"type": "Point", "coordinates": [126.9793025, 37.569295]}, "properties": {"type": "start/end"}}, {"type": "Feature", "geometry": {"type": "Point", "coordinates": [126.9791699, 37.5692947]}, "properties": {"type": "start/end"}}, {"type": "Feature", "geometry": {"type": "Point", "coordinates": [126.9791688, 37.5692561]}, "properties": {"type": "start/end"}}, {"type": "Feature", "geometry": {"type": "Point", "coordinates": [126.9784086, 37.5693048]}, "properties": {"type": "start/end"}}, {"type": "Feature", "geometry": {"type": "Point", "coordinates": [126.9776066, 37.569343]}, "properties": {"type": "start/end"}}, {"type": "Feature", "geometry": {"type": "Point", "coordinates": [126.9775686, 37.5690663]}, "properties": {"type": "start/end"}}, {"type": "Feature", "geometry": {"type": "Point", "coordinates": [126.9773441, 37.5687781]}, "properties": {"type": "start/end"}}, {"type": "Feature", "geometry": {"type": "Point", "coordinates": [126.9773768, 37.5680233]}, "properties": {"type": "start/end"}}, {"type": "Feature", "geometry": {"type": "Point", "coordinates": [126.9773441, 37.56794]}, "properties": {"type": "start/end"}}, {"type": "Feature", "geometry": {"type": "Point", "coordinates": [126.9773957, 37.5669071]}, "properties": {"type": "start/end"}}, {"type": "Feature", "geometry": {"type": "Point", "coordinates": [126.9769492, 37.5669034]}, "properties": {"type": "start/end"}}, {"type": "Feature", "geometry": {"type": "Point", "coordinates": [126.9769532, 37.5668302]}, "properties": {"type": "start/end"}}, {"type": "Feature", "geometry": {"type": "Point", "coordinates": [126.9769204, 37.5667253]}, "properties": {"type": "start/end"}}, {"type": "Feature", "geometry": {"type": "Point", "coordinates": [126.9769184, 37.5665208]}, "properties": {"type": "start/end"}}, {"type": "Feature", "geometry": {"type": "Point", "coordinates": [126.9769169, 37.5662205]}, "properties": {"type": "start/end"}}, {"type": "Feature", "geometry": {"type": "Point", "coordinates": [126.976944, 37.5655619]}, "properties": {"type": "start/end"}}, {"type": "Feature", "geometry": {"type": "Point", "coordinates": [126.9768892, 37.5652948]}, "properties": {"type": "start/end"}}, {"type": "Feature", "geometry": {"type": "Point", "coordinates": [126.9769348, 37.5651709]}, "properties": {"type": "start/end"}}, {"type": "Feature", "geometry": {"type": "Point", "coordinates": [126.9769168, 37.564958]}, "properties": {"type": "start/end"}}, {"type": "Feature", "geometry": {"type": "Point", "coordinates": [126.9764901, 37.565015]}, "properties": {"type": "start/end"}}, {"type": "Feature", "geometry": {"type": "Point", "coordinates": [126.9760729, 37.5650617]}, "properties": {"type": "start/end"}}, {"type": "Feature", "geometry": {"type": "Point", "coordinates": [126.9760924, 37.5652783]}, "properties": {"type": "start/end"}}, {"type": "Feature", "geometry": {"type": "Point", "coordinates": [126.9757113, 37.5653945]}, "properties": {"type": "start/end"}}, {"type": "Feature", "geometry": {"type": "Point", "coordinates": [126.9757635, 37.5655493]}, "properties": {"type": "start/end"}}, {"type": "Feature", "geometry": {"type": "Point", "coordinates": [126.9750407, 37.5656926]}, "properties": {"type": "start/end"}}, {"type": "Feature", "geometry": {"type": "Point", "coordinates": [126.975102, 37.5658895]}, "properties": {"type": "start/end"}}, {"type": "Feature", "geometry": {"type": "Point", "coordinates": [126.9744924, 37.5660598]}, "properties": {"type": "start/end"}}, {"type": "Feature", "geometry": {"type": "Point", "coordinates": [126.97408974717308, 37.56606784686664]}, "properties": {"type": "start/end"}}, {"type": "Feature", "geometry": {"type": "Point", "coordinates": [126.9744924, 37.5660598]}, "properties": {"type": "start/end"}}, {"type": "Feature", "geometry": {"type": "Point", "coordinates": [126.975102, 37.5658895]}, "properties": {"type": "start/end"}}, {"type": "Feature", "geometry": {"type": "Point", "coordinates": [126.9750407, 37.5656926]}, "properties": {"type": "start/end"}}, {"type": "Feature", "geometry": {"type": "Point", "coordinates": [126.9757635, 37.5655493]}, "properties": {"type": "start/end"}}, {"type": "Feature", "geometry": {"type": "Point", "coordinates": [126.9757113, 37.5653945]}, "properties": {"type": "start/end"}}, {"type": "Feature", "geometry": {"type": "Point", "coordinates": [126.9760924, 37.5652783]}, "properties": {"type": "start/end"}}, {"type": "Feature", "geometry": {"type": "Point", "coordinates": [126.9760729, 37.5650617]}, "properties": {"type": "start/end"}}, {"type": "Feature", "geometry": {"type": "Point", "coordinates": [126.9764901, 37.565015]}, "properties": {"type": "start/end"}}, {"type": "Feature", "geometry": {"type": "Point", "coordinates": [126.9769168, 37.564958]}, "properties": {"type": "start/end"}}, {"type": "Feature", "geometry": {"type": "Point", "coordinates": [126.9768705, 37.5648222]}, "properties": {"type": "start/end"}}, {"type": "Feature", "geometry": {"type": "Point", "coordinates": [126.9766489, 37.5648204]}, "properties": {"type": "start/end"}}, {"type": "Feature", "geometry": {"type": "Point", "coordinates": [126.9761116, 37.5648891]}, "properties": {"type": "start/end"}}, {"type": "Feature", "geometry": {"type": "Point", "coordinates": [126.9759418, 37.5648948]}, "properties": {"type": "start/end"}}, {"type": "Feature", "geometry": {"type": "Point", "coordinates": [126.9740713, 37.5647443]}, "properties": {"type": "start/end"}}, {"type": "Feature", "geometry": {"type": "Point", "coordinates": [126.973986, 37.5647502]}, "properties": {"type": "start/end"}}, {"type": "Feature", "geometry": {"type": "Point", "coordinates": [126.9739311, 37.5647752]}, "properties": {"type": "start/end"}}, {"type": "Feature", "geometry": {"type": "Point", "coordinates": [126.9738894, 37.5648102]}, "properties": {"type": "start/end"}}, {"type": "Feature", "geometry": {"type": "Point", "coordinates": [126.97383, 37.5649]}, "properties": {"type": "start/end"}}, {"type": "Feature", "geometry": {"type": "Point", "coordinates": [126.9736445, 37.5651281]}, "properties": {"type": "start/end"}}, {"type": "Feature", "geometry": {"type": "Point", "coordinates": [126.9734681, 37.5651886]}, "properties": {"type": "start/end"}}, {"type": "Feature", "geometry": {"type": "Point", "coordinates": [126.973464, 37.5651592]}, "properties": {"type": "start/end"}}, {"type": "Feature", "geometry": {"type": "Point", "coordinates": [126.973446, 37.5651333]}, "properties": {"type": "start/end"}}, {"type": "Feature", "geometry": {"type": "Point", "coordinates": [126.9735184, 37.5650436]}, "properties": {"type": "start/end"}}, {"type": "Feature", "geometry": {"type": "Point", "coordinates": [126.9735778, 37.5649321]}, "properties": {"type": "start/end"}}, {"type": "Feature", "geometry": {"type": "Point", "coordinates": [126.9736114, 37.5648857]}, "properties": {"type": "start/end"}}, {"type": "Feature", "geometry": {"type": "Point", "coordinates": [126.9737381, 37.5647818]}, "properties": {"type": "start/end"}}, {"type": "Feature", "geometry": {"type": "Point", "coordinates": [126.9737687, 37.564741]}, "properties": {"type": "start/end"}}, {"type": "Feature", "geometry": {"type": "Point", "coordinates": [126.9737926, 37.5646799]}, "properties": {"type": "start/end"}}, {"type": "Feature", "geometry": {"type": "Point", "coordinates": [126.973795, 37.5646186]}, "properties": {"type": "start/end"}}, {"type": "Feature", "geometry": {"type": "Point", "coordinates": [126.9737657, 37.5643453]}, "properties": {"type": "start/end"}}, {"type": "Feature", "geometry": {"type": "Point", "coordinates": [126.9738924, 37.5643484]}, "properties": {"type": "start/end"}}, {"type": "Feature", "geometry": {"type": "Point", "coordinates": [126.973895, 37.5642918]}, "properties": {"type": "start/end"}}, {"type": "Feature", "geometry": {"type": "Point", "coordinates": [126.974274, 37.564308]}, "properties": {"type": "start/end"}}, {"type": "Feature", "geometry": {"type": "Point", "coordinates": [126.9742914, 37.5641091]}, "properties": {"type": "start/end"}}, {"type": "Feature", "geometry": {"type": "Point", "coordinates": [126.9742624, 37.5640916]}, "properties": {"type": "start/end"}}, {"type": "Feature", "geometry": {"type": "Point", "coordinates": [126.9742375, 37.5640562]}, "properties": {"type": "start/end"}}, {"type": "Feature", "geometry": {"type": "Point", "coordinates": [126.97416973259323, 37.564051822260545]}, "properties": {"type": "start/end"}}, {"type": "Feature", "geometry": {"type": "Point", "coordinates": [126.9742375, 37.5640562]}, "properties": {"type": "start/end"}}, {"type": "Feature", "geometry": {"type": "Point", "coordinates": [126.9742624, 37.5640916]}, "properties": {"type": "start/end"}}, {"type": "Feature", "geometry": {"type": "Point", "coordinates": [126.9742914, 37.5641091]}, "properties": {"type": "start/end"}}, {"type": "Feature", "geometry": {"type": "Point", "coordinates": [126.974274, 37.564308]}, "properties": {"type": "start/end"}}, {"type": "Feature", "geometry": {"type": "Point", "coordinates": [126.973895, 37.5642918]}, "properties": {"type": "start/end"}}, {"type": "Feature", "geometry": {"type": "Point", "coordinates": [126.9738924, 37.5643484]}, "properties": {"type": "start/end"}}, {"type": "Feature", "geometry": {"type": "Point", "coordinates": [126.9737657, 37.5643453]}, "properties": {"type": "start/end"}}, {"type": "Feature", "geometry": {"type": "Point", "coordinates": [126.973795, 37.5646186]}, "properties": {"type": "start/end"}}, {"type": "Feature", "geometry": {"type": "Point", "coordinates": [126.9737926, 37.5646799]}, "properties": {"type": "start/end"}}, {"type": "Feature", "geometry": {"type": "Point", "coordinates": [126.9737687, 37.564741]}, "properties": {"type": "start/end"}}, {"type": "Feature", "geometry": {"type": "Point", "coordinates": [126.9737381, 37.5647818]}, "properties": {"type": "start/end"}}, {"type": "Feature", "geometry": {"type": "Point", "coordinates": [126.9736114, 37.5648857]}, "properties": {"type": "start/end"}}, {"type": "Feature", "geometry": {"type": "Point", "coordinates": [126.9735778, 37.5649321]}, "properties": {"type": "start/end"}}, {"type": "Feature", "geometry": {"type": "Point", "coordinates": [126.9735184, 37.5650436]}, "properties": {"type": "start/end"}}, {"type": "Feature", "geometry": {"type": "Point", "coordinates": [126.973446, 37.5651333]}, "properties": {"type": "start/end"}}, {"type": "Feature", "geometry": {"type": "Point", "coordinates": [126.973464, 37.5651592]}, "properties": {"type": "start/end"}}, {"type": "Feature", "geometry": {"type": "Point", "coordinates": [126.9734681, 37.5651886]}, "properties": {"type": "start/end"}}, {"type": "Feature", "geometry": {"type": "Point", "coordinates": [126.9736445, 37.5651281]}, "properties": {"type": "start/end"}}, {"type": "Feature", "geometry": {"type": "Point", "coordinates": [126.97383, 37.5649]}, "properties": {"type": "start/end"}}, {"type": "Feature", "geometry": {"type": "Point", "coordinates": [126.9738894, 37.5648102]}, "properties": {"type": "start/end"}}, {"type": "Feature", "geometry": {"type": "Point", "coordinates": [126.9739311, 37.5647752]}, "properties": {"type": "start/end"}}, {"type": "Feature", "geometry": {"type": "Point", "coordinates": [126.973986, 37.5647502]}, "properties": {"type": "start/end"}}, {"type": "Feature", "geometry": {"type": "Point", "coordinates": [126.9740713, 37.5647443]}, "properties": {"type": "start/end"}}, {"type": "Feature", "geometry": {"type": "Point", "coordinates": [126.9751098, 37.5648294]}, "properties": {"type": "start/end"}}, {"type": "Feature", "geometry": {"type": "Point", "coordinates": [126.9759418, 37.5648948]}, "properties": {"type": "start/end"}}, {"type": "Feature", "geometry": {"type": "Point", "coordinates": [126.9761116, 37.5648891]}, "properties": {"type": "start/end"}}, {"type": "Feature", "geometry": {"type": "Point", "coordinates": [126.9766489, 37.5648204]}, "properties": {"type": "start/end"}}, {"type": "Feature", "geometry": {"type": "Point", "coordinates": [126.9770737, 37.5648238]}, "properties": {"type": "start/end"}}, {"type": "Feature", "geometry": {"type": "Point", "coordinates": [126.977084, 37.5649238]}, "properties": {"type": "start/end"}}, {"type": "Feature", "geometry": {"type": "Point", "coordinates": [126.9772128, 37.564928]}, "properties": {"type": "start/end"}}, {"type": "Feature", "geometry": {"type": "Point", "coordinates": [126.9782113, 37.5649179]}, "properties": {"type": "start/end"}}, {"type": "Feature", "geometry": {"type": "Point", "coordinates": [126.9783214, 37.5649478]}, "properties": {"type": "start/end"}}, {"type": "Feature", "geometry": {"type": "Point", "coordinates": [126.9784092, 37.5649883]}, "properties": {"type": "start/end"}}, {"type": "Feature", "geometry": {"type": "Point", "coordinates": [126.9784768, 37.5650437]}, "properties": {"type": "start/end"}}, {"type": "Feature", "geometry": {"type": "Point", "coordinates": [126.9785327, 37.5651195]}, "properties": {"type": "start/end"}}, {"type": "Feature", "geometry": {"type": "Point", "coordinates": [126.9789049, 37.5658899]}, "properties": {"type": "start/end"}}, {"type": "Feature", "geometry": {"type": "Point", "coordinates": [126.9789782, 37.5660099]}, "properties": {"type": "start/end"}}, {"type": "Feature", "geometry": {"type": "Point", "coordinates": [126.980623, 37.5660131]}, "properties": {"type": "start/end"}}, {"type": "Feature", "geometry": {"type": "Point", "coordinates": [126.9820871, 37.5660402]}, "properties": {"type": "start/end"}}, {"type": "Feature", "geometry": {"type": "Point", "coordinates": [126.982681, 37.5664871]}, "properties": {"type": "start/end"}}, {"type": "Feature", "geometry": {"type": "Point", "coordinates": [126.9826936, 37.5667932]}, "properties": {"type": "start/end"}}, {"type": "Feature", "geometry": {"type": "Point", "coordinates": [126.98399683456309, 37.56680165357095]}, "properties": {"type": "start/end"}}]}