{"type": "FeatureCollection", "features": [{"type": "Feature", "geometry": {"type": "LineString", "coordinates": [[126.97800061959825, 37.5664660224127], [126.9784438, 37.5664711], [126.9784458, 37.5663705], [126.9785213, 37.5663475], [126.9790108, 37.5662531], [126.9791423, 37.5662463], [126.9790961, 37.5661748], [126.9790329, 37.5661066], [126.9789782, 37.5660099], [126.980623, 37.5660131], [126.9829454, 37.5660563], [126.9835363, 37.5660899], [126.9844806, 37.566107], [126.9875102, 37.5662155], [126.9884165, 37.5662392], [126.98840991063372, 37.56648021874366], [126.9883932, 37.567176], [126.987667, 37.5671653], [126.9877429, 37.5679868], [126.9871514, 37.5680081], [126.9866336, 37.5680147], [126.9856204, 37.5682036], [126.9856364, 37.568254], [126.984508, 37.5684596], [126.9834602, 37.5686695], [126.9829888, 37.568739], [126.9829825, 37.568697], [126.9827446, 37.5687378], [126.9827849, 37.5690741], [126.9828538, 37.5695301], [126.9829601, 37.5701576], [126.9829761, 37.5704046], [126.9830552, 37.5710945], [126.9830729, 37.5713685], [126.9830432, 37.5723613], [126.982992, 37.5730413], [126.9822536, 37.572998], [126.9822502, 37.5729625], [126.98194841325076, 37.572991331758445], [126.9822502, 37.5729625], [126.9822536, 37.572998], [126.982992, 37.5730413], [126.9830432, 37.5723613], [126.9830729, 37.5713685], [126.9830552, 37.5710945], [126.9829761, 37.5704046], [126.9829601, 37.5701576], [126.9828538, 37.5695301], [126.9827849, 37.5690741], [126.9827446, 37.5687378], [126.9829825, 37.568697], [126.9829888, 37.568739], [126.9834602, 37.5686695], [126.984508, 37.5684596], [126.9856364, 37.568254], [126.9856204, 37.5682036], [126.9857047, 37.568152], [126.9857533, 37.568105], [126.9857828, 37.5679761], [126.98538259543007, 37.56787975099868], [126.9857828, 37.5679761], [126.9857533, 37.568105], [126.9857047, 37.568152], [126.9856204, 37.5682036], [126.9856364, 37.568254], [126.984508, 37.5684596], [126.9834602, 37.5686695], [126.9829888, 37.568739], [126.9829825, 37.568697], [126.9827446, 37.5687378], [126.9825267, 37.5687553], [126.9825333, 37.5687786], [126.9804925, 37.5689238], [126.9800485, 37.5689685], [126.9794117, 37.5690176], [126.9794388, 37.5692859], [126.9793025, 37.569295], [126.9793366, 37.5700577], [126.9793377, 37.570263], [126.9785909, 37.5702717], [126.97857609796327, 37.570738695910705], [126.9785909, 37.5702717], [126.9793377, 37.570263], [126.9793366, 37.5700577], [126.9793031, 37.5692519], [126.9792757, 37.5688656], [126.9792179, 37.5688684], [126.9791658, 37.5675344], [126.9792257, 37.5675337], [126.9791959, 37.5668992], [126.9791423, 37.5662463], [126.9790961, 37.5661748], [126.9790329, 37.5661066], [126.9789782, 37.5660099], [126.9789049, 37.5658899], [126.9796831, 37.5658899], [126.9796812, 37.5658572], [126.9803785, 37.5658415], [126.9804365, 37.5658152], [126.9814708, 37.5658073], [126.9814727, 37.565768], [126.9817612, 37.5657627], [126.9817833, 37.5653614], [126.9820624, 37.565359], [126.98212, 37.5653402], [126.9821392, 37.5653133], [126.9821554, 37.5652671]]}, "properties": {"type": "route"}}, {"type": "Feature", "geometry": {"type": "Point", "coordinates": [126.97800061959825, 37.5664660224127]}, "properties": {"type": "start/end"}}, {"type": "Feature", "geometry": {"type": "Point", "coordinates": [126.9784438, 37.5664711]}, "properties": {"type": "start/end"}}, {"type": "Feature", "geometry": {"type": "Point", "coordinates": [126.9784458, 37.5663705]}, "properties": {"type": "start/end"}}, {"type": "Feature", "geometry": {"type": "Point", "coordinates": [126.9785213, 37.5663475]}, "properties": {"type": "start/end"}}, {"type": "Feature", "geometry": {"type": "Point", "coordinates": [126.9790108, 37.5662531]}, "properties": {"type": "start/end"}}, {"type": "Feature", "geometry": {"type": "Point", "coordinates": [126.9791423, 37.5662463]}, "properties": {"type": "start/end"}}, {"type": "Feature", "geometry": {"type": "Point", "coordinates": [126.9790961, 37.5661748]}, "properties": {"type": "start/end"}}, {"type": "Feature", "geometry": {"type": "Point", "coordinates": [126.9790329, 37.5661066]}, "properties": {"type": "start/end"}}, {"type": "Feature", "geometry": {"type": "Point", "coordinates": [126.9789782, 37.5660099]}, "properties": {"type": "start/end"}}, {"type": "Feature", "geometry": {"type": "Point", "coordinates": [126.980623, 37.5660131]}, "properties": {"type": "start/end"}}, {"type": "Feature", "geometry": {"type": "Point", "coordinates": [126.9829454, 37.5660563]}, "properties": {"type": "start/end"}}, {"type": "Feature", "geometry": {"type": "Point", "coordinates": [126.9835363, 37.5660899]}, "properties": {"type": "start/end"}}, {"type": "Feature", "geometry": {"type": "Point", "coordinates": [126.9844806, 37.566107]}, "properties": {"type": "start/end"}}, {"type": "Feature", "geometry": {"type": "Point", "coordinates": [126.9875102, 37.5662155]}, "properties": {"type": "start/end"}}, {"type": "Feature", "geometry": {"type": "Point", "coordinates": [126.9884165, 37.5662392]}, "properties": {"type": "start/end"}}, {"type": "Feature", "geometry": {"type": "Point", "coordinates": [126.98840991063372, 37.56648021874366]}, "properties": {"type": "start/end"}}, {"type": "Feature", "geometry": {"type": "Point", "coordinates": [126.9883932, 37.567176]}, "properties": {"type": "start/end"}}, {"type": "Feature", "geometry": {"type": "Point", "coordinates": [126.987667, 37.5671653]}, "properties": {"type": "start/end"}}, {"type": "Feature", "geometry": {"type": "Point", "coordinates": [126.9877429, 37.5679868]}, "properties": {"type": "start/end"}}, {"type": "Feature", "geometry": {"type": "Point", "coordinates": [126.9871514, 37.5680081]}, "properties": {"type": "start/end"}}, {"type": "Feature", "geometry": {"type": "Point", "coordinates": [126.9866336, 37.5680147]}, "properties": {"type": "start/end"}}, {"type": "Feature", "geometry": {"type": "Point", "coordinates": [126.9856204, 37.5682036]}, "properties": {"type": "start/end"}}, {"type": "Feature", "geometry": {"type": "Point", "coordinates": [126.9856364, 37.568254]}, "properties": {"type": "start/end"}}, {"type": "Feature", "geometry": {"type": "Point", "coordinates": [126.984508, 37.5684596]}, "properties": {"type": "start/end"}}, {"type": "Feature", "geometry": {"type": "Point", "coordinates": [126.9834602, 37.5686695]}, "properties": {"type": "start/end"}}, {"type": "Feature", "geometry": {"type": "Point", "coordinates": [126.9829888, 37.568739]}, "properties": {"type": "start/end"}}, {"type": "Feature", "geometry": {"type": "Point", "coordinates": [126.9829825, 37.568697]}, "properties": {"type": "start/end"}}, {"type": "Feature", "geometry": {"type": "Point", "coordinates": [126.9827446, 37.5687378]}, "properties": {"type": "start/end"}}, {"type": "Feature", "geometry": {"type": "Point", "coordinates": [126.9827849, 37.5690741]}, "properties": {"type": "start/end"}}, {"type": "Feature", "geometry": {"type": "Point", "coordinates": [126.9828538, 37.5695301]}, "properties": {"type": "start/end"}}, {"type": "Feature", "geometry": {"type": "Point", "coordinates": [126.9829601, 37.5701576]}, "properties": {"type": "start/end"}}, {"type": "Feature", "geometry": {"type": "Point", "coordinates": [126.9829761, 37.5704046]}, "properties": {"type": "start/end"}}, {"type": "Feature", "geometry": {"type": "Point", "coordinates": [126.9830552, 37.5710945]}, "properties": {"type": "start/end"}}, {"type": "Feature", "geometry": {"type": "Point", "coordinates": [126.9830729, 37.5713685]}, "properties": {"type": "start/end"}}, {"type": "Feature", "geometry": {"type": "Point", "coordinates": [126.9830432, 37.5723613]}, "properties": {"type": "start/end"}}, {"type": "Feature", "geometry": {"type": "Point", "coordinates": [126.982992, 37.5730413]}, "properties": {"type": "start/end"}}, {"type": "Feature", "geometry": {"type": "Point", "coordinates": [126.9822536, 37.572998]}, "properties": {"type": "start/end"}}, {"type": "Feature", "geometry": {"type": "Point", "coordinates": [126.9822502, 37.5729625]}, "properties": {"type": "start/end"}}, {"type": "Feature", "geometry": {"type": "Point", "coordinates": [126.98194841325076, 37.572991331758445]}, "properties": {"type": "start/end"}}, {"type": "Feature", "geometry": {"type": "Point", "coordinates": [126.9822502, 37.5729625]}, "properties": {"type": "start/end"}}, {"type": "Feature", "geometry": {"type": "Point", "coordinates": [126.9822536, 37.572998]}, "properties": {"type": "start/end"}}, {"type": "Feature", "geometry": {"type": "Point", "coordinates": [126.982992, 37.5730413]}, "properties": {"type": "start/end"}}, {"type": "Feature", "geometry": {"type": "Point", "coordinates": [126.9830432, 37.5723613]}, "properties": {"type": "start/end"}}, {"type": "Feature", "geometry": {"type": "Point", "coordinates": [126.9830729, 37.5713685]}, "properties": {"type": "start/end"}}, {"type": "Feature", "geometry": {"type": "Point", "coordinates": [126.9830552, 37.5710945]}, "properties": {"type": "start/end"}}, {"type": "Feature", "geometry": {"type": "Point", "coordinates": [126.9829761, 37.5704046]}, "properties": {"type": "start/end"}}, {"type": "Feature", "geometry": {"type": "Point", "coordinates": [126.9829601, 37.5701576]}, "properties": {"type": "start/end"}}, {"type": "Feature", "geometry": {"type": "Point", "coordinates": [126.9828538, 37.5695301]}, "properties": {"type": "start/end"}}, {"type": "Feature", "geometry": {"type": "Point", "coordinates": [126.9827849, 37.5690741]}, "properties": {"type": "start/end"}}, {"type": "Feature", "geometry": {"type": "Point", "coordinates": [126.9827446, 37.5687378]}, "properties": {"type": "start/end"}}, {"type": "Feature", "geometry": {"type": "Point", "coordinates": [126.9829825, 37.568697]}, "properties": {"type": "start/end"}}, {"type": "Feature", "geometry": {"type": "Point", "coordinates": [126.9829888, 37.568739]}, "properties": {"type": "start/end"}}, {"type": "Feature", "geometry": {"type": "Point", "coordinates": [126.9834602, 37.5686695]}, "properties": {"type": "start/end"}}, {"type": "Feature", "geometry": {"type": "Point", "coordinates": [126.984508, 37.5684596]}, "properties": {"type": "start/end"}}, {"type": "Feature", "geometry": {"type": "Point", "coordinates": [126.9856364, 37.568254]}, "properties": {"type": "start/end"}}, {"type": "Feature", "geometry": {"type": "Point", "coordinates": [126.9856204, 37.5682036]}, "properties": {"type": "start/end"}}, {"type": "Feature", "geometry": {"type": "Point", "coordinates": [126.9857047, 37.568152]}, "properties": {"type": "start/end"}}, {"type": "Feature", "geometry": {"type": "Point", "coordinates": [126.9857533, 37.568105]}, "properties": {"type": "start/end"}}, {"type": "Feature", "geometry": {"type": "Point", "coordinates": [126.9857828, 37.5679761]}, "properties": {"type": "start/end"}}, {"type": "Feature", "geometry": {"type": "Point", "coordinates": [126.98538259543007, 37.56787975099868]}, "properties": {"type": "start/end"}}, {"type": "Feature", "geometry": {"type": "Point", "coordinates": [126.9857828, 37.5679761]}, "properties": {"type": "start/end"}}, {"type": "Feature", "geometry": {"type": "Point", "coordinates": [126.9857533, 37.568105]}, "properties": {"type": "start/end"}}, {"type": "Feature", "geometry": {"type": "Point", "coordinates": [126.9857047, 37.568152]}, "properties": {"type": "start/end"}}, {"type": "Feature", "geometry": {"type": "Point", "coordinates": [126.9856204, 37.5682036]}, "properties": {"type": "start/end"}}, {"type": "Feature", "geometry": {"type": "Point", "coordinates": [126.9856364, 37.568254]}, "properties": {"type": "start/end"}}, {"type": "Feature", "geometry": {"type": "Point", "coordinates": [126.984508, 37.5684596]}, "properties": {"type": "start/end"}}, {"type": "Feature", "geometry": {"type": "Point", "coordinates": [126.9834602, 37.5686695]}, "properties": {"type": "start/end"}}, {"type": "Feature", "geometry": {"type": "Point", "coordinates": [126.9829888, 37.568739]}, "properties": {"type": "start/end"}}, {"type": "Feature", "geometry": {"type": "Point", "coordinates": [126.9829825, 37.568697]}, "properties": {"type": "start/end"}}, {"type": "Feature", "geometry": {"type": "Point", "coordinates": [126.9827446, 37.5687378]}, "properties": {"type": "start/end"}}, {"type": "Feature", "geometry": {"type": "Point", "coordinates": [126.9825267, 37.5687553]}, "properties": {"type": "start/end"}}, {"type": "Feature", "geometry": {"type": "Point", "coordinates": [126.9825333, 37.5687786]}, "properties": {"type": "start/end"}}, {"type": "Feature", "geometry": {"type": "Point", "coordinates": [126.9804925, 37.5689238]}, "properties": {"type": "start/end"}}, {"type": "Feature", "geometry": {"type": "Point", "coordinates": [126.9800485, 37.5689685]}, "properties": {"type": "start/end"}}, {"type": "Feature", "geometry": {"type": "Point", "coordinates": [126.9794117, 37.5690176]}, "properties": {"type": "start/end"}}, {"type": "Feature", "geometry": {"type": "Point", "coordinates": [126.9794388, 37.5692859]}, "properties": {"type": "start/end"}}, {"type": "Feature", "geometry": {"type": "Point", "coordinates": [126.9793025, 37.569295]}, "properties": {"type": "start/end"}}, {"type": "Feature", "geometry": {"type": "Point", "coordinates": [126.9793366, 37.5700577]}, "properties": {"type": "start/end"}}, {"type": "Feature", "geometry": {"type": "Point", "coordinates": [126.9793377, 37.570263]}, "properties": {"type": "start/end"}}, {"type": "Feature", "geometry": {"type": "Point", "coordinates": [126.9785909, 37.5702717]}, "properties": {"type": "start/end"}}, {"type": "Feature", "geometry": {"type": "Point", "coordinates": [126.97857609796327, 37.570738695910705]}, "properties": {"type": "start/end"}}, {"type": "Feature", "geometry": {"type": "Point", "coordinates": [126.9785909, 37.5702717]}, "properties": {"type": "start/end"}}, {"type": "Feature", "geometry": {"type": "Point", "coordinates": [126.9793377, 37.570263]}, "properties": {"type": "start/end"}}, {"type": "Feature", "geometry": {"type": "Point", "coordinates": [126.9793366, 37.5700577]}, "properties": {"type": "start/end"}}, {"type": "Feature", "geometry": {"type": "Point", "coordinates": [126.9793031, 37.5692519]}, "properties": {"type": "start/end"}}, {"type": "Feature", "geometry": {"type": "Point", "coordinates": [126.9792757, 37.5688656]}, "properties": {"type": "start/end"}}, {"type": "Feature", "geometry": {"type": "Point", "coordinates": [126.9792179, 37.5688684]}, "properties": {"type": "start/end"}}, {"type": "Feature", "geometry": {"type": "Point", "coordinates": [126.9791658, 37.5675344]}, "properties": {"type": "start/end"}}, {"type": "Feature", "geometry": {"type": "Point", "coordinates": [126.9792257, 37.5675337]}, "properties": {"type": "start/end"}}, {"type": "Feature", "geometry": {"type": "Point", "coordinates": [126.9791959, 37.5668992]}, "properties": {"type": "start/end"}}, {"type": "Feature", "geometry": {"type": "Point", "coordinates": [126.9791423, 37.5662463]}, "properties": {"type": "start/end"}}, {"type": "Feature", "geometry": {"type": "Point", "coordinates": [126.9790961, 37.5661748]}, "properties": {"type": "start/end"}}, {"type": "Feature", "geometry": {"type": "Point", "coordinates": [126.9790329, 37.5661066]}, "properties": {"type": "start/end"}}, {"type": "Feature", "geometry": {"type": "Point", "coordinates": [126.9789782, 37.5660099]}, "properties": {"type": "start/end"}}, {"type": "Feature", "geometry": {"type": "Point", "coordinates": [126.9789049, 37.5658899]}, "properties": {"type": "start/end"}}, {"type": "Feature", "geometry": {"type": "Point", "coordinates": [126.9796831, 37.5658899]}, "properties": {"type": "start/end"}}, {"type": "Feature", "geometry": {"type": "Point", "coordinates": [126.9796812, 37.5658572]}, "properties": {"type": "start/end"}}, {"type": "Feature", "geometry": {"type": "Point", "coordinates": [126.9803785, 37.5658415]}, "properties": {"type": "start/end"}}, {"type": "Feature", "geometry": {"type": "Point", "coordinates": [126.9804365, 37.5658152]}, "properties": {"type": "start/end"}}, {"type": "Feature", "geometry": {"type": "Point", "coordinates": [126.9814708, 37.5658073]}, "properties": {"type": "start/end"}}, {"type": "Feature", "geometry": {"type": "Point", "coordinates": [126.9814727, 37.565768]}, "properties": {"type": "start/end"}}, {"type": "Feature", "geometry": {"type": "Point", "coordinates": [126.9817612, 37.5657627]}, "properties": {"type": "start/end"}}, {"type": "Feature", "geometry": {"type": "Point", "coordinates": [126.9817833, 37.5653614]}, "properties": {"type": "start/end"}}, {"type": "Feature", "geometry": {"type": "Point", "coordinates": [126.9820624, 37.565359]}, "properties": {"type": "start/end"}}, {"type": "Feature", "geometry": {"type": "Point", "coordinates": [126.98212, 37.5653402]}, "properties": {"type": "start/end"}}, {"type": "Feature", "geometry": {"type": "Point", "coordinates": [126.9821392, 37.5653133]}, "properties": {"type": "start/end"}}, {"type": "Feature", "geometry": {"type": "Point", "coordinates": [126.9821554, 37.5652671]}, "properties": {"type": "start/end"}}]}