{"type": "FeatureCollection", "features": [{"type": "Feature", "geometry": {"type": "LineString", "coordinates": [[126.97800061959825, 37.5664660224127], [126.9778241, 37.566464], [126.9778258, 37.5664198], [126.9776458, 37.5664159], [126.9776381, 37.5666033], [126.9776087, 37.5666036], [126.9776017, 37.566868], [126.9773952, 37.5668644], [126.9773957, 37.5669071], [126.9771133, 37.5669047], [126.9771089, 37.5671239], [126.9770423, 37.5684059], [126.97613, 37.56905], [126.9758692, 37.5692651], [126.975765, 37.5694237], [126.9755109, 37.5701106], [126.9744552, 37.5700768], [126.972549, 37.5700513], [126.9725486, 37.5701892], [126.9719561, 37.5701855], [126.971447, 37.5699853], [126.9711566, 37.569819], [126.9710884, 37.5697723], [126.9708869, 37.569917], [126.9706304, 37.5697775], [126.970404, 37.5697278], [126.970301, 37.5697366], [126.9702299, 37.5697651], [126.9699173, 37.5700723], [126.96983140948184, 37.57028188302389], [126.9699173, 37.5700723], [126.9702299, 37.5697651], [126.970301, 37.5697366], [126.970404, 37.5697278], [126.9706304, 37.5697775], [126.9708869, 37.569917], [126.9710884, 37.5697723], [126.9711566, 37.569819], [126.971447, 37.5699853], [126.9719561, 37.5701855], [126.9747154, 37.5702027], [126.9755991, 37.5702744], [126.9769011, 37.5702796], [126.9769001, 37.5701066], [126.9769476, 37.5700916], [126.9769485, 37.570046], [126.9773512, 37.5700505], [126.977462, 37.5700022], [126.9773517, 37.5698493], [126.9776112, 37.5693894], [126.9776066, 37.569343], [126.9784086, 37.5693048], [126.9791688, 37.5692561], [126.9791699, 37.5692947], [126.9793025, 37.569295], [126.9794388, 37.5692859], [126.979435, 37.5692556], [126.9810434, 37.5691476], [126.9810187, 37.5691802], [126.9818907, 37.5691277], [126.9817155, 37.5694825], [126.98168425825212, 37.5695359015923], [126.9817155, 37.5694825], [126.9818907, 37.5691277], [126.9827849, 37.5690741], [126.9827348, 37.5686066], [126.982738, 37.5679812], [126.9827226, 37.567502], [126.9826996, 37.566872], [126.9826478, 37.5659058], [126.9820178, 37.5658898], [126.9814622, 37.5658983], [126.9814692, 37.5658411], [126.98077455362184, 37.56585024516834], [126.9803906, 37.5658553], [126.9803785, 37.5658415], [126.9796812, 37.5658572], [126.9796831, 37.5658899], [126.9789049, 37.5658899], [126.9789782, 37.5660099], [126.9790329, 37.5661066], [126.9790961, 37.5661748], [126.9791423, 37.5662463], [126.9791959, 37.5668992], [126.9792257, 37.5675337], [126.9791658, 37.5675344], [126.9792179, 37.5688684], [126.9792757, 37.5688656], [126.9793031, 37.5692519], [126.9793366, 37.5700577], [126.9793377, 37.570263], [126.9785909, 37.5702717], [126.97856309486036, 37.571104121784586], [126.9785891, 37.5703733], [126.9781457, 37.5703648], [126.9776947, 37.5703436], [126.977377, 37.5703447], [126.9773512, 37.5700505], [126.9769005, 37.5700455], [126.9767497, 37.5698633], [126.9767498, 37.5692356], [126.9768426, 37.5691429], [126.9768421, 37.569025], [126.9768176, 37.5689588], [126.9769532, 37.5668302], [126.9769204, 37.5667253], [126.9769184, 37.5665208], [126.9769169, 37.5662205], [126.976944, 37.5655619], [126.9768892, 37.5652948], [126.9769348, 37.5651709], [126.9769168, 37.564958], [126.9768705, 37.5648222], [126.9768064, 37.564766], [126.9767249, 37.564607], [126.9766329, 37.5643869], [126.9767325, 37.5642669], [126.9767867, 37.564118], [126.9765441, 37.5640125], [126.9766701, 37.5638903], [126.9765739, 37.563787], [126.9766196, 37.5636929], [126.976568, 37.5635306], [126.976401, 37.5631358], [126.976274, 37.5627923], [126.976197, 37.5627081], [126.9759593, 37.5620483], [126.975872, 37.5619145], [126.97529191791358, 37.56203699151289]]}, "properties": {"type": "route"}}, {"type": "Feature", "geometry": {"type": "Point", "coordinates": [126.97800061959825, 37.5664660224127]}, "properties": {"type": "start/end"}}, {"type": "Feature", "geometry": {"type": "Point", "coordinates": [126.9778241, 37.566464]}, "properties": {"type": "start/end"}}, {"type": "Feature", "geometry": {"type": "Point", "coordinates": [126.9778258, 37.5664198]}, "properties": {"type": "start/end"}}, {"type": "Feature", "geometry": {"type": "Point", "coordinates": [126.9776458, 37.5664159]}, "properties": {"type": "start/end"}}, {"type": "Feature", "geometry": {"type": "Point", "coordinates": [126.9776381, 37.5666033]}, "properties": {"type": "start/end"}}, {"type": "Feature", "geometry": {"type": "Point", "coordinates": [126.9776087, 37.5666036]}, "properties": {"type": "start/end"}}, {"type": "Feature", "geometry": {"type": "Point", "coordinates": [126.9776017, 37.566868]}, "properties": {"type": "start/end"}}, {"type": "Feature", "geometry": {"type": "Point", "coordinates": [126.9773952, 37.5668644]}, "properties": {"type": "start/end"}}, {"type": "Feature", "geometry": {"type": "Point", "coordinates": [126.9773957, 37.5669071]}, "properties": {"type": "start/end"}}, {"type": "Feature", "geometry": {"type": "Point", "coordinates": [126.9771133, 37.5669047]}, "properties": {"type": "start/end"}}, {"type": "Feature", "geometry": {"type": "Point", "coordinates": [126.9771089, 37.5671239]}, "properties": {"type": "start/end"}}, {"type": "Feature", "geometry": {"type": "Point", "coordinates": [126.9770423, 37.5684059]}, "properties": {"type": "start/end"}}, {"type": "Feature", "geometry": {"type": "Point", "coordinates": [126.97613, 37.56905]}, "properties": {"type": "start/end"}}, {"type": "Feature", "geometry": {"type": "Point", "coordinates": [126.9758692, 37.5692651]}, "properties": {"type": "start/end"}}, {"type": "Feature", "geometry": {"type": "Point", "coordinates": [126.975765, 37.5694237]}, "properties": {"type": "start/end"}}, {"type": "Feature", "geometry": {"type": "Point", "coordinates": [126.9755109, 37.5701106]}, "properties": {"type": "start/end"}}, {"type": "Feature", "geometry": {"type": "Point", "coordinates": [126.9744552, 37.5700768]}, "properties": {"type": "start/end"}}, {"type": "Feature", "geometry": {"type": "Point", "coordinates": [126.972549, 37.5700513]}, "properties": {"type": "start/end"}}, {"type": "Feature", "geometry": {"type": "Point", "coordinates": [126.9725486, 37.5701892]}, "properties": {"type": "start/end"}}, {"type": "Feature", "geometry": {"type": "Point", "coordinates": [126.9719561, 37.5701855]}, "properties": {"type": "start/end"}}, {"type": "Feature", "geometry": {"type": "Point", "coordinates": [126.971447, 37.5699853]}, "properties": {"type": "start/end"}}, {"type": "Feature", "geometry": {"type": "Point", "coordinates": [126.9711566, 37.569819]}, "properties": {"type": "start/end"}}, {"type": "Feature", "geometry": {"type": "Point", "coordinates": [126.9710884, 37.5697723]}, "properties": {"type": "start/end"}}, {"type": "Feature", "geometry": {"type": "Point", "coordinates": [126.9708869, 37.569917]}, "properties": {"type": "start/end"}}, {"type": "Feature", "geometry": {"type": "Point", "coordinates": [126.9706304, 37.5697775]}, "properties": {"type": "start/end"}}, {"type": "Feature", "geometry": {"type": "Point", "coordinates": [126.970404, 37.5697278]}, "properties": {"type": "start/end"}}, {"type": "Feature", "geometry": {"type": "Point", "coordinates": [126.970301, 37.5697366]}, "properties": {"type": "start/end"}}, {"type": "Feature", "geometry": {"type": "Point", "coordinates": [126.9702299, 37.5697651]}, "properties": {"type": "start/end"}}, {"type": "Feature", "geometry": {"type": "Point", "coordinates": [126.9699173, 37.5700723]}, "properties": {"type": "start/end"}}, {"type": "Feature", "geometry": {"type": "Point", "coordinates": [126.96983140948184, 37.57028188302389]}, "properties": {"type": "start/end"}}, {"type": "Feature", "geometry": {"type": "Point", "coordinates": [126.9699173, 37.5700723]}, "properties": {"type": "start/end"}}, {"type": "Feature", "geometry": {"type": "Point", "coordinates": [126.9702299, 37.5697651]}, "properties": {"type": "start/end"}}, {"type": "Feature", "geometry": {"type": "Point", "coordinates": [126.970301, 37.5697366]}, "properties": {"type": "start/end"}}, {"type": "Feature", "geometry": {"type": "Point", "coordinates": [126.970404, 37.5697278]}, "properties": {"type": "start/end"}}, {"type": "Feature", "geometry": {"type": "Point", "coordinates": [126.9706304, 37.5697775]}, "properties": {"type": "start/end"}}, {"type": "Feature", "geometry": {"type": "Point", "coordinates": [126.9708869, 37.569917]}, "properties": {"type": "start/end"}}, {"type": "Feature", "geometry": {"type": "Point", "coordinates": [126.9710884, 37.5697723]}, "properties": {"type": "start/end"}}, {"type": "Feature", "geometry": {"type": "Point", "coordinates": [126.9711566, 37.569819]}, "properties": {"type": "start/end"}}, {"type": "Feature", "geometry": {"type": "Point", "coordinates": [126.971447, 37.5699853]}, "properties": {"type": "start/end"}}, {"type": "Feature", "geometry": {"type": "Point", "coordinates": [126.9719561, 37.5701855]}, "properties": {"type": "start/end"}}, {"type": "Feature", "geometry": {"type": "Point", "coordinates": [126.9747154, 37.5702027]}, "properties": {"type": "start/end"}}, {"type": "Feature", "geometry": {"type": "Point", "coordinates": [126.9755991, 37.5702744]}, "properties": {"type": "start/end"}}, {"type": "Feature", "geometry": {"type": "Point", "coordinates": [126.9769011, 37.5702796]}, "properties": {"type": "start/end"}}, {"type": "Feature", "geometry": {"type": "Point", "coordinates": [126.9769001, 37.5701066]}, "properties": {"type": "start/end"}}, {"type": "Feature", "geometry": {"type": "Point", "coordinates": [126.9769476, 37.5700916]}, "properties": {"type": "start/end"}}, {"type": "Feature", "geometry": {"type": "Point", "coordinates": [126.9769485, 37.570046]}, "properties": {"type": "start/end"}}, {"type": "Feature", "geometry": {"type": "Point", "coordinates": [126.9773512, 37.5700505]}, "properties": {"type": "start/end"}}, {"type": "Feature", "geometry": {"type": "Point", "coordinates": [126.977462, 37.5700022]}, "properties": {"type": "start/end"}}, {"type": "Feature", "geometry": {"type": "Point", "coordinates": [126.9773517, 37.5698493]}, "properties": {"type": "start/end"}}, {"type": "Feature", "geometry": {"type": "Point", "coordinates": [126.9776112, 37.5693894]}, "properties": {"type": "start/end"}}, {"type": "Feature", "geometry": {"type": "Point", "coordinates": [126.9776066, 37.569343]}, "properties": {"type": "start/end"}}, {"type": "Feature", "geometry": {"type": "Point", "coordinates": [126.9784086, 37.5693048]}, "properties": {"type": "start/end"}}, {"type": "Feature", "geometry": {"type": "Point", "coordinates": [126.9791688, 37.5692561]}, "properties": {"type": "start/end"}}, {"type": "Feature", "geometry": {"type": "Point", "coordinates": [126.9791699, 37.5692947]}, "properties": {"type": "start/end"}}, {"type": "Feature", "geometry": {"type": "Point", "coordinates": [126.9793025, 37.569295]}, "properties": {"type": "start/end"}}, {"type": "Feature", "geometry": {"type": "Point", "coordinates": [126.9794388, 37.5692859]}, "properties": {"type": "start/end"}}, {"type": "Feature", "geometry": {"type": "Point", "coordinates": [126.979435, 37.5692556]}, "properties": {"type": "start/end"}}, {"type": "Feature", "geometry": {"type": "Point", "coordinates": [126.9810434, 37.5691476]}, "properties": {"type": "start/end"}}, {"type": "Feature", "geometry": {"type": "Point", "coordinates": [126.9810187, 37.5691802]}, "properties": {"type": "start/end"}}, {"type": "Feature", "geometry": {"type": "Point", "coordinates": [126.9818907, 37.5691277]}, "properties": {"type": "start/end"}}, {"type": "Feature", "geometry": {"type": "Point", "coordinates": [126.9817155, 37.5694825]}, "properties": {"type": "start/end"}}, {"type": "Feature", "geometry": {"type": "Point", "coordinates": [126.98168425825212, 37.5695359015923]}, "properties": {"type": "start/end"}}, {"type": "Feature", "geometry": {"type": "Point", "coordinates": [126.9817155, 37.5694825]}, "properties": {"type": "start/end"}}, {"type": "Feature", "geometry": {"type": "Point", "coordinates": [126.9818907, 37.5691277]}, "properties": {"type": "start/end"}}, {"type": "Feature", "geometry": {"type": "Point", "coordinates": [126.9827849, 37.5690741]}, "properties": {"type": "start/end"}}, {"type": "Feature", "geometry": {"type": "Point", "coordinates": [126.9827348, 37.5686066]}, "properties": {"type": "start/end"}}, {"type": "Feature", "geometry": {"type": "Point", "coordinates": [126.982738, 37.5679812]}, "properties": {"type": "start/end"}}, {"type": "Feature", "geometry": {"type": "Point", "coordinates": [126.9827226, 37.567502]}, "properties": {"type": "start/end"}}, {"type": "Feature", "geometry": {"type": "Point", "coordinates": [126.9826996, 37.566872]}, "properties": {"type": "start/end"}}, {"type": "Feature", "geometry": {"type": "Point", "coordinates": [126.9826478, 37.5659058]}, "properties": {"type": "start/end"}}, {"type": "Feature", "geometry": {"type": "Point", "coordinates": [126.9820178, 37.5658898]}, "properties": {"type": "start/end"}}, {"type": "Feature", "geometry": {"type": "Point", "coordinates": [126.9814622, 37.5658983]}, "properties": {"type": "start/end"}}, {"type": "Feature", "geometry": {"type": "Point", "coordinates": [126.9814692, 37.5658411]}, "properties": {"type": "start/end"}}, {"type": "Feature", "geometry": {"type": "Point", "coordinates": [126.98077455362184, 37.56585024516834]}, "properties": {"type": "start/end"}}, {"type": "Feature", "geometry": {"type": "Point", "coordinates": [126.9803906, 37.5658553]}, "properties": {"type": "start/end"}}, {"type": "Feature", "geometry": {"type": "Point", "coordinates": [126.9803785, 37.5658415]}, "properties": {"type": "start/end"}}, {"type": "Feature", "geometry": {"type": "Point", "coordinates": [126.9796812, 37.5658572]}, "properties": {"type": "start/end"}}, {"type": "Feature", "geometry": {"type": "Point", "coordinates": [126.9796831, 37.5658899]}, "properties": {"type": "start/end"}}, {"type": "Feature", "geometry": {"type": "Point", "coordinates": [126.9789049, 37.5658899]}, "properties": {"type": "start/end"}}, {"type": "Feature", "geometry": {"type": "Point", "coordinates": [126.9789782, 37.5660099]}, "properties": {"type": "start/end"}}, {"type": "Feature", "geometry": {"type": "Point", "coordinates": [126.9790329, 37.5661066]}, "properties": {"type": "start/end"}}, {"type": "Feature", "geometry": {"type": "Point", "coordinates": [126.9790961, 37.5661748]}, "properties": {"type": "start/end"}}, {"type": "Feature", "geometry": {"type": "Point", "coordinates": [126.9791423, 37.5662463]}, "properties": {"type": "start/end"}}, {"type": "Feature", "geometry": {"type": "Point", "coordinates": [126.9791959, 37.5668992]}, "properties": {"type": "start/end"}}, {"type": "Feature", "geometry": {"type": "Point", "coordinates": [126.9792257, 37.5675337]}, "properties": {"type": "start/end"}}, {"type": "Feature", "geometry": {"type": "Point", "coordinates": [126.9791658, 37.5675344]}, "properties": {"type": "start/end"}}, {"type": "Feature", "geometry": {"type": "Point", "coordinates": [126.9792179, 37.5688684]}, "properties": {"type": "start/end"}}, {"type": "Feature", "geometry": {"type": "Point", "coordinates": [126.9792757, 37.5688656]}, "properties": {"type": "start/end"}}, {"type": "Feature", "geometry": {"type": "Point", "coordinates": [126.9793031, 37.5692519]}, "properties": {"type": "start/end"}}, {"type": "Feature", "geometry": {"type": "Point", "coordinates": [126.9793366, 37.5700577]}, "properties": {"type": "start/end"}}, {"type": "Feature", "geometry": {"type": "Point", "coordinates": [126.9793377, 37.570263]}, "properties": {"type": "start/end"}}, {"type": "Feature", "geometry": {"type": "Point", "coordinates": [126.9785909, 37.5702717]}, "properties": {"type": "start/end"}}, {"type": "Feature", "geometry": {"type": "Point", "coordinates": [126.97856309486036, 37.571104121784586]}, "properties": {"type": "start/end"}}, {"type": "Feature", "geometry": {"type": "Point", "coordinates": [126.9785891, 37.5703733]}, "properties": {"type": "start/end"}}, {"type": "Feature", "geometry": {"type": "Point", "coordinates": [126.9781457, 37.5703648]}, "properties": {"type": "start/end"}}, {"type": "Feature", "geometry": {"type": "Point", "coordinates": [126.9776947, 37.5703436]}, "properties": {"type": "start/end"}}, {"type": "Feature", "geometry": {"type": "Point", "coordinates": [126.977377, 37.5703447]}, "properties": {"type": "start/end"}}, {"type": "Feature", "geometry": {"type": "Point", "coordinates": [126.9773512, 37.5700505]}, "properties": {"type": "start/end"}}, {"type": "Feature", "geometry": {"type": "Point", "coordinates": [126.9769005, 37.5700455]}, "properties": {"type": "start/end"}}, {"type": "Feature", "geometry": {"type": "Point", "coordinates": [126.9767497, 37.5698633]}, "properties": {"type": "start/end"}}, {"type": "Feature", "geometry": {"type": "Point", "coordinates": [126.9767498, 37.5692356]}, "properties": {"type": "start/end"}}, {"type": "Feature", "geometry": {"type": "Point", "coordinates": [126.9768426, 37.5691429]}, "properties": {"type": "start/end"}}, {"type": "Feature", "geometry": {"type": "Point", "coordinates": [126.9768421, 37.569025]}, "properties": {"type": "start/end"}}, {"type": "Feature", "geometry": {"type": "Point", "coordinates": [126.9768176, 37.5689588]}, "properties": {"type": "start/end"}}, {"type": "Feature", "geometry": {"type": "Point", "coordinates": [126.9769532, 37.5668302]}, "properties": {"type": "start/end"}}, {"type": "Feature", "geometry": {"type": "Point", "coordinates": [126.9769204, 37.5667253]}, "properties": {"type": "start/end"}}, {"type": "Feature", "geometry": {"type": "Point", "coordinates": [126.9769184, 37.5665208]}, "properties": {"type": "start/end"}}, {"type": "Feature", "geometry": {"type": "Point", "coordinates": [126.9769169, 37.5662205]}, "properties": {"type": "start/end"}}, {"type": "Feature", "geometry": {"type": "Point", "coordinates": [126.976944, 37.5655619]}, "properties": {"type": "start/end"}}, {"type": "Feature", "geometry": {"type": "Point", "coordinates": [126.9768892, 37.5652948]}, "properties": {"type": "start/end"}}, {"type": "Feature", "geometry": {"type": "Point", "coordinates": [126.9769348, 37.5651709]}, "properties": {"type": "start/end"}}, {"type": "Feature", "geometry": {"type": "Point", "coordinates": [126.9769168, 37.564958]}, "properties": {"type": "start/end"}}, {"type": "Feature", "geometry": {"type": "Point", "coordinates": [126.9768705, 37.5648222]}, "properties": {"type": "start/end"}}, {"type": "Feature", "geometry": {"type": "Point", "coordinates": [126.9768064, 37.564766]}, "properties": {"type": "start/end"}}, {"type": "Feature", "geometry": {"type": "Point", "coordinates": [126.9767249, 37.564607]}, "properties": {"type": "start/end"}}, {"type": "Feature", "geometry": {"type": "Point", "coordinates": [126.9766329, 37.5643869]}, "properties": {"type": "start/end"}}, {"type": "Feature", "geometry": {"type": "Point", "coordinates": [126.9767325, 37.5642669]}, "properties": {"type": "start/end"}}, {"type": "Feature", "geometry": {"type": "Point", "coordinates": [126.9767867, 37.564118]}, "properties": {"type": "start/end"}}, {"type": "Feature", "geometry": {"type": "Point", "coordinates": [126.9765441, 37.5640125]}, "properties": {"type": "start/end"}}, {"type": "Feature", "geometry": {"type": "Point", "coordinates": [126.9766701, 37.5638903]}, "properties": {"type": "start/end"}}, {"type": "Feature", "geometry": {"type": "Point", "coordinates": [126.9765739, 37.563787]}, "properties": {"type": "start/end"}}, {"type": "Feature", "geometry": {"type": "Point", "coordinates": [126.9766196, 37.5636929]}, "properties": {"type": "start/end"}}, {"type": "Feature", "geometry": {"type": "Point", "coordinates": [126.976568, 37.5635306]}, "properties": {"type": "start/end"}}, {"type": "Feature", "geometry": {"type": "Point", "coordinates": [126.976401, 37.5631358]}, "properties": {"type": "start/end"}}, {"type": "Feature", "geometry": {"type": "Point", "coordinates": [126.976274, 37.5627923]}, "properties": {"type": "start/end"}}, {"type": "Feature", "geometry": {"type": "Point", "coordinates": [126.976197, 37.5627081]}, "properties": {"type": "start/end"}}, {"type": "Feature", "geometry": {"type": "Point", "coordinates": [126.9759593, 37.5620483]}, "properties": {"type": "start/end"}}, {"type": "Feature", "geometry": {"type": "Point", "coordinates": [126.975872, 37.5619145]}, "properties": {"type": "start/end"}}, {"type": "Feature", "geometry": {"type": "Point", "coordinates": [126.97529191791358, 37.56203699151289]}, "properties": {"type": "start/end"}}]}