{"type": "FeatureCollection", "features": [{"type": "Feature", "geometry": {"type": "LineString", "coordinates": [[126.9779704135259, 37.566465879937105], [126.9784156, 37.5664716], [126.978415, 37.5663811], [126.9785213, 37.5663475], [126.9790108, 37.5662531], [126.9791423, 37.5662463], [126.9791959, 37.5668992], [126.9792495, 37.5678811], [126.9792631, 37.5686313], [126.9793031, 37.5692519], [126.979338, 37.5701409], [126.9793115, 37.5713506], [126.9792237, 37.5724226], [126.980159, 37.5724752], [126.9800988, 37.5726063], [126.9798444, 37.5734468], [126.9797314, 37.5735588], [126.979514, 37.5739743], [126.9793783, 37.5742778], [126.9805493, 37.5751512], [126.98084336966262, 37.57492209683656], [126.9805493, 37.5751512], [126.9793783, 37.5742778], [126.9793435, 37.5742628], [126.9786464, 37.5742849], [126.978559, 37.5743064], [126.9785183, 37.5742748], [126.9784623, 37.5742667], [126.9784098, 37.5742851], [126.9783795, 37.5743239], [126.9783765, 37.5743468], [126.9773862, 37.5743236], [126.9744778, 37.5740805], [126.9734373, 37.57407], [126.9726915, 37.5740414], [126.9726083, 37.5720389], [126.9725486, 37.5701892], [126.9719561, 37.5701855], [126.9716455, 37.5700634], [126.9701049, 37.5689867], [126.9700451, 37.5689542], [126.9694906, 37.5686522], [126.9691067, 37.5683684], [126.9687704, 37.5680549], [126.9682763, 37.5676193], [126.96754, 37.5668212], [126.9670182, 37.5663216], [126.9665825, 37.5658697], [126.966295, 37.5655361], [126.9656624, 37.5646916], [126.9654909, 37.5644384], [126.9654093, 37.5644067], [126.9651921, 37.5643517], [126.964777, 37.5643927], [126.9640041, 37.5644242], [126.9637969, 37.5644757], [126.9632644, 37.5646687], [126.9631854, 37.5646907], [126.9630232, 37.5647145], [126.9628303, 37.5647014], [126.9627148, 37.5646681], [126.9626573, 37.5646341], [126.9620427, 37.5641182], [126.9619829, 37.5640785], [126.961897, 37.5640383], [126.9617829, 37.5640052], [126.9616571, 37.5639906], [126.9614801, 37.5640021], [126.9614011, 37.5640206], [126.9600448, 37.5644522], [126.9596719, 37.5645476], [126.9590945, 37.5644081], [126.9589735, 37.5643348], [126.9583718, 37.56415], [126.9580995, 37.5640127], [126.9579411, 37.5638165], [126.9576887, 37.5632594], [126.9573055, 37.5631359], [126.9574413, 37.5628466], [126.9556482, 37.5622556], [126.9556762, 37.5621874], [126.9540853, 37.5617777], [126.9528475, 37.5615676], [126.9527597, 37.5615445], [126.9522146, 37.5612706], [126.9519634, 37.5611092], [126.9505593, 37.5601597], [126.9498684, 37.5597757], [126.9494253, 37.5595273], [126.9491463, 37.5589386], [126.9487672, 37.5588609], [126.9479493, 37.5587995], [126.9465552, 37.5588014], [126.9457452, 37.5587741], [126.94580928498856, 37.55810055448099]]}, "properties": {}}]}