{"type": "FeatureCollection", "features": [{"type": "Feature", "geometry": {"type": "LineString", "coordinates": [[126.97797026418282, 37.566465674625945], [126.9784438, 37.5664711], [126.9784458, 37.5663705], [126.9785213, 37.5663475], [126.9790108, 37.5662531], [126.9791423, 37.5662463], [126.9790961, 37.5661748], [126.9790329, 37.5661066], [126.9789782, 37.5660099], [126.9789049, 37.5658899], [126.9785327, 37.5651195], [126.9785106, 37.5649659], [126.9785241, 37.5649083], [126.978561, 37.5648468], [126.9789674, 37.5644037], [126.9794692, 37.5639294], [126.980485, 37.5627149], [126.9809758, 37.5621864], [126.9812282, 37.5618992], [126.9813785, 37.56148], [126.9815841, 37.5609746], [126.9817567, 37.5607568], [126.9818319, 37.560626], [126.9821638, 37.5599686], [126.982249, 37.5597632], [126.9824977, 37.5592422], [126.9827373, 37.5588612], [126.9828721, 37.5585843], [126.9830881, 37.5584942], [126.9833187, 37.5580142], [126.9834542, 37.557664], [126.9835383, 37.5573313], [126.9835551, 37.5571975], [126.9839547, 37.557035], [126.9841436, 37.5569743], [126.9842584, 37.5567595], [126.9842976, 37.5567117], [126.9843012, 37.5566106], [126.9843519, 37.5564802], [126.9844177, 37.5563956], [126.9844759, 37.5563438], [126.9844797, 37.5563044], [126.9845628, 37.5561939], [126.9846351, 37.5561489], [126.9845027, 37.5561327], [126.98428, 37.5561349], [126.9841956, 37.5561136], [126.9841026, 37.5560751], [126.9840454, 37.5560126], [126.983981, 37.555901], [126.9839112, 37.555447], [126.9838509, 37.5552492], [126.9837101, 37.5550366], [126.9835773, 37.5548612], [126.9834499, 37.5547123], [126.9832313, 37.5545762], [126.9831233, 37.5545273], [126.9831888, 37.5544926], [126.9835724, 37.5541856], [126.9838282, 37.5539467], [126.9837544, 37.5538444], [126.9837034, 37.5538161], [126.9834433, 37.5538402], [126.9831899, 37.5538439], [126.9831571, 37.553814], [126.9831613, 37.5537335], [126.9836183, 37.5532274], [126.9837971, 37.5532092], [126.9840441, 37.5531964], [126.9842214, 37.5532054], [126.984415, 37.5532054], [126.9845206, 37.5532473], [126.9847112, 37.5534009], [126.9847307, 37.5534455], [126.9846033, 37.5535859], [126.984561, 37.5536736], [126.984565, 37.5537379], [126.984622, 37.5537964], [126.9846629, 37.5538224], [126.9847421, 37.5538395], [126.984809, 37.5539054], [126.9848181, 37.5540132], [126.9848339, 37.5540702], [126.9849351, 37.5540938], [126.9850335, 37.5541275], [126.9850812, 37.5540278], [126.9851346, 37.5540342], [126.985275, 37.5541591], [126.985331, 37.5541845], [126.9853772, 37.554111], [126.9854227, 37.55389], [126.9855035, 37.5537921], [126.9855808, 37.5537279], [126.9858102, 37.5536615], [126.9859544, 37.553604], [126.9860975, 37.5535234], [126.9862213, 37.5534148], [126.9863413, 37.5532878], [126.9866104, 37.5528188], [126.9867339, 37.5526727], [126.9868576, 37.5525552], [126.9870069, 37.5524487], [126.9870966, 37.5523989], [126.9871155, 37.5523659], [126.9871371, 37.5522495], [126.9871634, 37.5521891], [126.987301, 37.5520206], [126.9873707, 37.5519478], [126.9875413, 37.5518422], [126.987744, 37.5517631], [126.987894, 37.5517271], [126.9881456, 37.5517244], [126.9886271, 37.5517579], [126.988788, 37.5517175], [126.9893859, 37.5515067], [126.9895, 37.5514772], [126.9902664, 37.5514084], [126.9904812, 37.5513321], [126.9907482, 37.5512042], [126.9909463, 37.5510556], [126.9908493, 37.5510666], [126.9907898, 37.5510627], [126.9907294, 37.5510683], [126.9903328, 37.5512125], [126.9902216, 37.5512338], [126.9900612, 37.5512725], [126.9897709, 37.5513082], [126.9896925, 37.5513112], [126.9894571, 37.5513007], [126.9890907, 37.5512657], [126.989101, 37.5512248], [126.9888612, 37.55117], [126.9888642, 37.5511627], [126.9885695, 37.5511055], [126.9885776, 37.5510652], [126.98831674426802, 37.551004301019866]]}, "properties": {}}]}