{"type": "FeatureCollection", "features": [{"type": "Feature", "geometry": {"type": "LineString", "coordinates": [[126.94596272347805, 37.55734924568446], [126.9466294, 37.557388], [126.9465552, 37.5588014], [126.9479493, 37.5587995], [126.9487672, 37.5588609], [126.9491463, 37.5589386], [126.9494253, 37.5595273], [126.9501709, 37.5599438], [126.9505593, 37.5601597], [126.9512686, 37.5606393], [126.9519634, 37.5611092], [126.9522146, 37.5612706], [126.9527597, 37.5615445], [126.9528475, 37.5615676], [126.9540853, 37.5617777], [126.9556762, 37.5621874], [126.9556482, 37.5622556], [126.9574413, 37.5628466], [126.9573055, 37.5631359], [126.9576887, 37.5632594], [126.9579411, 37.5638165], [126.9580995, 37.5640127], [126.9583718, 37.56415], [126.9589735, 37.5643348], [126.9590945, 37.5644081], [126.9588888, 37.5646397], [126.95865, 37.5648708], [126.9581781, 37.5653018], [126.9581963, 37.5653873], [126.9583032, 37.5655987], [126.9584391, 37.5657609], [126.9585586, 37.565837], [126.9586772, 37.5658729], [126.9586503, 37.565945], [126.9582809, 37.5662548], [126.9579323, 37.5665473], [126.9574974, 37.5673698], [126.9578614, 37.5687933], [126.9578156, 37.5688664], [126.9575616, 37.568897], [126.9574135, 37.5689233], [126.9572773, 37.5691517], [126.9567428, 37.5691725], [126.9566432, 37.5692265], [126.9567372, 37.5693673], [126.9574853232868, 37.57006206193693], [126.9567372, 37.5693673], [126.9566432, 37.5692265], [126.9567428, 37.5691725], [126.9572773, 37.5691517], [126.9574135, 37.5689233], [126.9575616, 37.568897], [126.9578156, 37.5688664], [126.9578614, 37.5687933], [126.9577449, 37.5683314], [126.9574974, 37.5673698], [126.9579323, 37.5665473], [126.9586503, 37.565945], [126.9586772, 37.5658729], [126.9585586, 37.565837], [126.9584391, 37.5657609], [126.9583032, 37.5655987], [126.9581963, 37.5653873], [126.9581781, 37.5653018], [126.95865, 37.5648708], [126.9588888, 37.5646397], [126.9592144, 37.5642639], [126.959361, 37.5642347], [126.9595341, 37.5638994], [126.9602956, 37.5636325], [126.9612276, 37.5633415], [126.962119, 37.5630433], [126.9619852, 37.5628199], [126.961812, 37.5623412], [126.9617995, 37.5622159], [126.9618089, 37.5620747], [126.961807, 37.5619174], [126.9618603, 37.5616311], [126.9618367, 37.5611876], [126.9618782, 37.5599036], [126.9619132, 37.5596054], [126.9619566, 37.5594948], [126.9620373, 37.5593864], [126.9621003, 37.5593288], [126.9626799, 37.5592854], [126.963208, 37.5593001], [126.9632192, 37.5590447], [126.96294836341482, 37.559034378391786], [126.9627705, 37.5590276], [126.9627686, 37.5590882], [126.9621462, 37.5590458], [126.962064, 37.5590291], [126.9615719, 37.5588786], [126.9596375, 37.5573115], [126.9593114, 37.5570426], [126.9591418, 37.5568825], [126.9581688, 37.5560262], [126.9573664, 37.5545417], [126.9559832, 37.5518644], [126.9554756, 37.5507751], [126.9564918, 37.5504218], [126.9554756, 37.5507751], [126.9553477, 37.5505696], [126.9551814, 37.5506262], [126.9552648, 37.5507823], [126.9548405, 37.5508113], [126.9544273, 37.5509886], [126.9535849, 37.5514551], [126.9537247, 37.5517144], [126.9539297, 37.552501], [126.9539575, 37.5530471], [126.9539302, 37.5534333], [126.9538299, 37.5538816], [126.953669, 37.5542732], [126.9534298, 37.5546898], [126.953245, 37.5548688], [126.9529926, 37.5550211], [126.9526805, 37.5551895], [126.9525921, 37.5552896], [126.9525671, 37.5553485], [126.9525646, 37.5554574], [126.9526169, 37.5556616], [126.952566, 37.5557785], [126.9524533, 37.5559316], [126.9524025, 37.5560249], [126.9523667, 37.5560233], [126.952397, 37.55615], [126.9520711, 37.5561377], [126.950831, 37.5562839], [126.9508343, 37.5561705], [126.9505785, 37.5561586], [126.9505613, 37.556329], [126.9502229, 37.5563201], [126.9499026, 37.5564841], [126.9499, 37.5565907], [126.949839, 37.5569503], [126.9458567, 37.5567077], [126.945855, 37.5568247], [126.945881, 37.5573445], [126.94596272347805, 37.55734924568446]]}, "properties": {"type": "route"}}, {"type": "Feature", "geometry": {"type": "Point", "coordinates": [126.94596272347805, 37.55734924568446]}, "properties": {"type": "start/end"}}, {"type": "Feature", "geometry": {"type": "Point", "coordinates": [126.9466294, 37.557388]}, "properties": {"type": "start/end"}}, {"type": "Feature", "geometry": {"type": "Point", "coordinates": [126.9465552, 37.5588014]}, "properties": {"type": "start/end"}}, {"type": "Feature", "geometry": {"type": "Point", "coordinates": [126.9479493, 37.5587995]}, "properties": {"type": "start/end"}}, {"type": "Feature", "geometry": {"type": "Point", "coordinates": [126.9487672, 37.5588609]}, "properties": {"type": "start/end"}}, {"type": "Feature", "geometry": {"type": "Point", "coordinates": [126.9491463, 37.5589386]}, "properties": {"type": "start/end"}}, {"type": "Feature", "geometry": {"type": "Point", "coordinates": [126.9494253, 37.5595273]}, "properties": {"type": "start/end"}}, {"type": "Feature", "geometry": {"type": "Point", "coordinates": [126.9501709, 37.5599438]}, "properties": {"type": "start/end"}}, {"type": "Feature", "geometry": {"type": "Point", "coordinates": [126.9505593, 37.5601597]}, "properties": {"type": "start/end"}}, {"type": "Feature", "geometry": {"type": "Point", "coordinates": [126.9512686, 37.5606393]}, "properties": {"type": "start/end"}}, {"type": "Feature", "geometry": {"type": "Point", "coordinates": [126.9519634, 37.5611092]}, "properties": {"type": "start/end"}}, {"type": "Feature", "geometry": {"type": "Point", "coordinates": [126.9522146, 37.5612706]}, "properties": {"type": "start/end"}}, {"type": "Feature", "geometry": {"type": "Point", "coordinates": [126.9527597, 37.5615445]}, "properties": {"type": "start/end"}}, {"type": "Feature", "geometry": {"type": "Point", "coordinates": [126.9528475, 37.5615676]}, "properties": {"type": "start/end"}}, {"type": "Feature", "geometry": {"type": "Point", "coordinates": [126.9540853, 37.5617777]}, "properties": {"type": "start/end"}}, {"type": "Feature", "geometry": {"type": "Point", "coordinates": [126.9556762, 37.5621874]}, "properties": {"type": "start/end"}}, {"type": "Feature", "geometry": {"type": "Point", "coordinates": [126.9556482, 37.5622556]}, "properties": {"type": "start/end"}}, {"type": "Feature", "geometry": {"type": "Point", "coordinates": [126.9574413, 37.5628466]}, "properties": {"type": "start/end"}}, {"type": "Feature", "geometry": {"type": "Point", "coordinates": [126.9573055, 37.5631359]}, "properties": {"type": "start/end"}}, {"type": "Feature", "geometry": {"type": "Point", "coordinates": [126.9576887, 37.5632594]}, "properties": {"type": "start/end"}}, {"type": "Feature", "geometry": {"type": "Point", "coordinates": [126.9579411, 37.5638165]}, "properties": {"type": "start/end"}}, {"type": "Feature", "geometry": {"type": "Point", "coordinates": [126.9580995, 37.5640127]}, "properties": {"type": "start/end"}}, {"type": "Feature", "geometry": {"type": "Point", "coordinates": [126.9583718, 37.56415]}, "properties": {"type": "start/end"}}, {"type": "Feature", "geometry": {"type": "Point", "coordinates": [126.9589735, 37.5643348]}, "properties": {"type": "start/end"}}, {"type": "Feature", "geometry": {"type": "Point", "coordinates": [126.9590945, 37.5644081]}, "properties": {"type": "start/end"}}, {"type": "Feature", "geometry": {"type": "Point", "coordinates": [126.9588888, 37.5646397]}, "properties": {"type": "start/end"}}, {"type": "Feature", "geometry": {"type": "Point", "coordinates": [126.95865, 37.5648708]}, "properties": {"type": "start/end"}}, {"type": "Feature", "geometry": {"type": "Point", "coordinates": [126.9581781, 37.5653018]}, "properties": {"type": "start/end"}}, {"type": "Feature", "geometry": {"type": "Point", "coordinates": [126.9581963, 37.5653873]}, "properties": {"type": "start/end"}}, {"type": "Feature", "geometry": {"type": "Point", "coordinates": [126.9583032, 37.5655987]}, "properties": {"type": "start/end"}}, {"type": "Feature", "geometry": {"type": "Point", "coordinates": [126.9584391, 37.5657609]}, "properties": {"type": "start/end"}}, {"type": "Feature", "geometry": {"type": "Point", "coordinates": [126.9585586, 37.565837]}, "properties": {"type": "start/end"}}, {"type": "Feature", "geometry": {"type": "Point", "coordinates": [126.9586772, 37.5658729]}, "properties": {"type": "start/end"}}, {"type": "Feature", "geometry": {"type": "Point", "coordinates": [126.9586503, 37.565945]}, "properties": {"type": "start/end"}}, {"type": "Feature", "geometry": {"type": "Point", "coordinates": [126.9582809, 37.5662548]}, "properties": {"type": "start/end"}}, {"type": "Feature", "geometry": {"type": "Point", "coordinates": [126.9579323, 37.5665473]}, "properties": {"type": "start/end"}}, {"type": "Feature", "geometry": {"type": "Point", "coordinates": [126.9574974, 37.5673698]}, "properties": {"type": "start/end"}}, {"type": "Feature", "geometry": {"type": "Point", "coordinates": [126.9578614, 37.5687933]}, "properties": {"type": "start/end"}}, {"type": "Feature", "geometry": {"type": "Point", "coordinates": [126.9578156, 37.5688664]}, "properties": {"type": "start/end"}}, {"type": "Feature", "geometry": {"type": "Point", "coordinates": [126.9575616, 37.568897]}, "properties": {"type": "start/end"}}, {"type": "Feature", "geometry": {"type": "Point", "coordinates": [126.9574135, 37.5689233]}, "properties": {"type": "start/end"}}, {"type": "Feature", "geometry": {"type": "Point", "coordinates": [126.9572773, 37.5691517]}, "properties": {"type": "start/end"}}, {"type": "Feature", "geometry": {"type": "Point", "coordinates": [126.9567428, 37.5691725]}, "properties": {"type": "start/end"}}, {"type": "Feature", "geometry": {"type": "Point", "coordinates": [126.9566432, 37.5692265]}, "properties": {"type": "start/end"}}, {"type": "Feature", "geometry": {"type": "Point", "coordinates": [126.9567372, 37.5693673]}, "properties": {"type": "start/end"}}, {"type": "Feature", "geometry": {"type": "Point", "coordinates": [126.9574853232868, 37.57006206193693]}, "properties": {"type": "start/end"}}, {"type": "Feature", "geometry": {"type": "Point", "coordinates": [126.9567372, 37.5693673]}, "properties": {"type": "start/end"}}, {"type": "Feature", "geometry": {"type": "Point", "coordinates": [126.9566432, 37.5692265]}, "properties": {"type": "start/end"}}, {"type": "Feature", "geometry": {"type": "Point", "coordinates": [126.9567428, 37.5691725]}, "properties": {"type": "start/end"}}, {"type": "Feature", "geometry": {"type": "Point", "coordinates": [126.9572773, 37.5691517]}, "properties": {"type": "start/end"}}, {"type": "Feature", "geometry": {"type": "Point", "coordinates": [126.9574135, 37.5689233]}, "properties": {"type": "start/end"}}, {"type": "Feature", "geometry": {"type": "Point", "coordinates": [126.9575616, 37.568897]}, "properties": {"type": "start/end"}}, {"type": "Feature", "geometry": {"type": "Point", "coordinates": [126.9578156, 37.5688664]}, "properties": {"type": "start/end"}}, {"type": "Feature", "geometry": {"type": "Point", "coordinates": [126.9578614, 37.5687933]}, "properties": {"type": "start/end"}}, {"type": "Feature", "geometry": {"type": "Point", "coordinates": [126.9577449, 37.5683314]}, "properties": {"type": "start/end"}}, {"type": "Feature", "geometry": {"type": "Point", "coordinates": [126.9574974, 37.5673698]}, "properties": {"type": "start/end"}}, {"type": "Feature", "geometry": {"type": "Point", "coordinates": [126.9579323, 37.5665473]}, "properties": {"type": "start/end"}}, {"type": "Feature", "geometry": {"type": "Point", "coordinates": [126.9586503, 37.565945]}, "properties": {"type": "start/end"}}, {"type": "Feature", "geometry": {"type": "Point", "coordinates": [126.9586772, 37.5658729]}, "properties": {"type": "start/end"}}, {"type": "Feature", "geometry": {"type": "Point", "coordinates": [126.9585586, 37.565837]}, "properties": {"type": "start/end"}}, {"type": "Feature", "geometry": {"type": "Point", "coordinates": [126.9584391, 37.5657609]}, "properties": {"type": "start/end"}}, {"type": "Feature", "geometry": {"type": "Point", "coordinates": [126.9583032, 37.5655987]}, "properties": {"type": "start/end"}}, {"type": "Feature", "geometry": {"type": "Point", "coordinates": [126.9581963, 37.5653873]}, "properties": {"type": "start/end"}}, {"type": "Feature", "geometry": {"type": "Point", "coordinates": [126.9581781, 37.5653018]}, "properties": {"type": "start/end"}}, {"type": "Feature", "geometry": {"type": "Point", "coordinates": [126.95865, 37.5648708]}, "properties": {"type": "start/end"}}, {"type": "Feature", "geometry": {"type": "Point", "coordinates": [126.9588888, 37.5646397]}, "properties": {"type": "start/end"}}, {"type": "Feature", "geometry": {"type": "Point", "coordinates": [126.9592144, 37.5642639]}, "properties": {"type": "start/end"}}, {"type": "Feature", "geometry": {"type": "Point", "coordinates": [126.959361, 37.5642347]}, "properties": {"type": "start/end"}}, {"type": "Feature", "geometry": {"type": "Point", "coordinates": [126.9595341, 37.5638994]}, "properties": {"type": "start/end"}}, {"type": "Feature", "geometry": {"type": "Point", "coordinates": [126.9602956, 37.5636325]}, "properties": {"type": "start/end"}}, {"type": "Feature", "geometry": {"type": "Point", "coordinates": [126.9612276, 37.5633415]}, "properties": {"type": "start/end"}}, {"type": "Feature", "geometry": {"type": "Point", "coordinates": [126.962119, 37.5630433]}, "properties": {"type": "start/end"}}, {"type": "Feature", "geometry": {"type": "Point", "coordinates": [126.9619852, 37.5628199]}, "properties": {"type": "start/end"}}, {"type": "Feature", "geometry": {"type": "Point", "coordinates": [126.961812, 37.5623412]}, "properties": {"type": "start/end"}}, {"type": "Feature", "geometry": {"type": "Point", "coordinates": [126.9617995, 37.5622159]}, "properties": {"type": "start/end"}}, {"type": "Feature", "geometry": {"type": "Point", "coordinates": [126.9618089, 37.5620747]}, "properties": {"type": "start/end"}}, {"type": "Feature", "geometry": {"type": "Point", "coordinates": [126.961807, 37.5619174]}, "properties": {"type": "start/end"}}, {"type": "Feature", "geometry": {"type": "Point", "coordinates": [126.9618603, 37.5616311]}, "properties": {"type": "start/end"}}, {"type": "Feature", "geometry": {"type": "Point", "coordinates": [126.9618367, 37.5611876]}, "properties": {"type": "start/end"}}, {"type": "Feature", "geometry": {"type": "Point", "coordinates": [126.9618782, 37.5599036]}, "properties": {"type": "start/end"}}, {"type": "Feature", "geometry": {"type": "Point", "coordinates": [126.9619132, 37.5596054]}, "properties": {"type": "start/end"}}, {"type": "Feature", "geometry": {"type": "Point", "coordinates": [126.9619566, 37.5594948]}, "properties": {"type": "start/end"}}, {"type": "Feature", "geometry": {"type": "Point", "coordinates": [126.9620373, 37.5593864]}, "properties": {"type": "start/end"}}, {"type": "Feature", "geometry": {"type": "Point", "coordinates": [126.9621003, 37.5593288]}, "properties": {"type": "start/end"}}, {"type": "Feature", "geometry": {"type": "Point", "coordinates": [126.9626799, 37.5592854]}, "properties": {"type": "start/end"}}, {"type": "Feature", "geometry": {"type": "Point", "coordinates": [126.963208, 37.5593001]}, "properties": {"type": "start/end"}}, {"type": "Feature", "geometry": {"type": "Point", "coordinates": [126.9632192, 37.5590447]}, "properties": {"type": "start/end"}}, {"type": "Feature", "geometry": {"type": "Point", "coordinates": [126.96294836341482, 37.559034378391786]}, "properties": {"type": "start/end"}}, {"type": "Feature", "geometry": {"type": "Point", "coordinates": [126.9627705, 37.5590276]}, "properties": {"type": "start/end"}}, {"type": "Feature", "geometry": {"type": "Point", "coordinates": [126.9627686, 37.5590882]}, "properties": {"type": "start/end"}}, {"type": "Feature", "geometry": {"type": "Point", "coordinates": [126.9621462, 37.5590458]}, "properties": {"type": "start/end"}}, {"type": "Feature", "geometry": {"type": "Point", "coordinates": [126.962064, 37.5590291]}, "properties": {"type": "start/end"}}, {"type": "Feature", "geometry": {"type": "Point", "coordinates": [126.9615719, 37.5588786]}, "properties": {"type": "start/end"}}, {"type": "Feature", "geometry": {"type": "Point", "coordinates": [126.9596375, 37.5573115]}, "properties": {"type": "start/end"}}, {"type": "Feature", "geometry": {"type": "Point", "coordinates": [126.9593114, 37.5570426]}, "properties": {"type": "start/end"}}, {"type": "Feature", "geometry": {"type": "Point", "coordinates": [126.9591418, 37.5568825]}, "properties": {"type": "start/end"}}, {"type": "Feature", "geometry": {"type": "Point", "coordinates": [126.9581688, 37.5560262]}, "properties": {"type": "start/end"}}, {"type": "Feature", "geometry": {"type": "Point", "coordinates": [126.9573664, 37.5545417]}, "properties": {"type": "start/end"}}, {"type": "Feature", "geometry": {"type": "Point", "coordinates": [126.9559832, 37.5518644]}, "properties": {"type": "start/end"}}, {"type": "Feature", "geometry": {"type": "Point", "coordinates": [126.9554756, 37.5507751]}, "properties": {"type": "start/end"}}, {"type": "Feature", "geometry": {"type": "Point", "coordinates": [126.9564918, 37.5504218]}, "properties": {"type": "start/end"}}, {"type": "Feature", "geometry": {"type": "Point", "coordinates": [126.9554756, 37.5507751]}, "properties": {"type": "start/end"}}, {"type": "Feature", "geometry": {"type": "Point", "coordinates": [126.9553477, 37.5505696]}, "properties": {"type": "start/end"}}, {"type": "Feature", "geometry": {"type": "Point", "coordinates": [126.9551814, 37.5506262]}, "properties": {"type": "start/end"}}, {"type": "Feature", "geometry": {"type": "Point", "coordinates": [126.9552648, 37.5507823]}, "properties": {"type": "start/end"}}, {"type": "Feature", "geometry": {"type": "Point", "coordinates": [126.9548405, 37.5508113]}, "properties": {"type": "start/end"}}, {"type": "Feature", "geometry": {"type": "Point", "coordinates": [126.9544273, 37.5509886]}, "properties": {"type": "start/end"}}, {"type": "Feature", "geometry": {"type": "Point", "coordinates": [126.9535849, 37.5514551]}, "properties": {"type": "start/end"}}, {"type": "Feature", "geometry": {"type": "Point", "coordinates": [126.9537247, 37.5517144]}, "properties": {"type": "start/end"}}, {"type": "Feature", "geometry": {"type": "Point", "coordinates": [126.9539297, 37.552501]}, "properties": {"type": "start/end"}}, {"type": "Feature", "geometry": {"type": "Point", "coordinates": [126.9539575, 37.5530471]}, "properties": {"type": "start/end"}}, {"type": "Feature", "geometry": {"type": "Point", "coordinates": [126.9539302, 37.5534333]}, "properties": {"type": "start/end"}}, {"type": "Feature", "geometry": {"type": "Point", "coordinates": [126.9538299, 37.5538816]}, "properties": {"type": "start/end"}}, {"type": "Feature", "geometry": {"type": "Point", "coordinates": [126.953669, 37.5542732]}, "properties": {"type": "start/end"}}, {"type": "Feature", "geometry": {"type": "Point", "coordinates": [126.9534298, 37.5546898]}, "properties": {"type": "start/end"}}, {"type": "Feature", "geometry": {"type": "Point", "coordinates": [126.953245, 37.5548688]}, "properties": {"type": "start/end"}}, {"type": "Feature", "geometry": {"type": "Point", "coordinates": [126.9529926, 37.5550211]}, "properties": {"type": "start/end"}}, {"type": "Feature", "geometry": {"type": "Point", "coordinates": [126.9526805, 37.5551895]}, "properties": {"type": "start/end"}}, {"type": "Feature", "geometry": {"type": "Point", "coordinates": [126.9525921, 37.5552896]}, "properties": {"type": "start/end"}}, {"type": "Feature", "geometry": {"type": "Point", "coordinates": [126.9525671, 37.5553485]}, "properties": {"type": "start/end"}}, {"type": "Feature", "geometry": {"type": "Point", "coordinates": [126.9525646, 37.5554574]}, "properties": {"type": "start/end"}}, {"type": "Feature", "geometry": {"type": "Point", "coordinates": [126.9526169, 37.5556616]}, "properties": {"type": "start/end"}}, {"type": "Feature", "geometry": {"type": "Point", "coordinates": [126.952566, 37.5557785]}, "properties": {"type": "start/end"}}, {"type": "Feature", "geometry": {"type": "Point", "coordinates": [126.9524533, 37.5559316]}, "properties": {"type": "start/end"}}, {"type": "Feature", "geometry": {"type": "Point", "coordinates": [126.9524025, 37.5560249]}, "properties": {"type": "start/end"}}, {"type": "Feature", "geometry": {"type": "Point", "coordinates": [126.9523667, 37.5560233]}, "properties": {"type": "start/end"}}, {"type": "Feature", "geometry": {"type": "Point", "coordinates": [126.952397, 37.55615]}, "properties": {"type": "start/end"}}, {"type": "Feature", "geometry": {"type": "Point", "coordinates": [126.9520711, 37.5561377]}, "properties": {"type": "start/end"}}, {"type": "Feature", "geometry": {"type": "Point", "coordinates": [126.950831, 37.5562839]}, "properties": {"type": "start/end"}}, {"type": "Feature", "geometry": {"type": "Point", "coordinates": [126.9508343, 37.5561705]}, "properties": {"type": "start/end"}}, {"type": "Feature", "geometry": {"type": "Point", "coordinates": [126.9505785, 37.5561586]}, "properties": {"type": "start/end"}}, {"type": "Feature", "geometry": {"type": "Point", "coordinates": [126.9505613, 37.556329]}, "properties": {"type": "start/end"}}, {"type": "Feature", "geometry": {"type": "Point", "coordinates": [126.9502229, 37.5563201]}, "properties": {"type": "start/end"}}, {"type": "Feature", "geometry": {"type": "Point", "coordinates": [126.9499026, 37.5564841]}, "properties": {"type": "start/end"}}, {"type": "Feature", "geometry": {"type": "Point", "coordinates": [126.9499, 37.5565907]}, "properties": {"type": "start/end"}}, {"type": "Feature", "geometry": {"type": "Point", "coordinates": [126.949839, 37.5569503]}, "properties": {"type": "start/end"}}, {"type": "Feature", "geometry": {"type": "Point", "coordinates": [126.9458567, 37.5567077]}, "properties": {"type": "start/end"}}, {"type": "Feature", "geometry": {"type": "Point", "coordinates": [126.945855, 37.5568247]}, "properties": {"type": "start/end"}}, {"type": "Feature", "geometry": {"type": "Point", "coordinates": [126.945881, 37.5573445]}, "properties": {"type": "start/end"}}, {"type": "Feature", "geometry": {"type": "Point", "coordinates": [126.94596272347805, 37.55734924568446]}, "properties": {"type": "start/end"}}]}